school_name,url_address,address,postal_code,telephone_no,email_address,mrt_desc,bus_desc,dgp_code,zone_code,type_code,nature_code,session_code,mainlevel_code,sap_ind,autonomous_ind,gifted_ind,ip_ind,mothertongue1_code,mothertongue2_code,mothertongue3_code
ADMIRALTY PRIMARY SCHOOL,https://admiraltypri.moe.edu.sg/,11   WOODLANDS CIRCLE,738907,63620598,ADMIRALTY_PS@MOE.EDU.SG,Admiralty Station,"TIBS 965, 964, 913",WOODLANDS,NORTH,GOVERNMENT SCHOOL,CO-ED SCHOOL,FULL DAY,PRIMARY,No,No,No,No,Chinese,Malay,Tamil
ADMIRALTY SECONDARY SCHOOL,http://www.admiraltysec.moe.edu.sg,31   WOODLANDS CRESCENT,737916,63651733,Admiralty_SS@moe.edu.sg,ADMIRALTY MRT,904,WOODLANDS,NORTH,GOVERNMENT SCHOOL,CO-ED SCHOOL,SINGLE SESSION,SECONDARY,No,No,No,No,Chinese,Malay,Tamil
AHMAD IBRAHIM PRIMARY SCHOOL,http://www.ahmadibrahimpri.moe.edu.sg,10   YISHUN STREET 11,768643,67592906,aips@moe.edu.sg,Yishun,"Yishun Ring Road - 812 (white plate); Yishun Ave 2 - 169, 804, 965, 117, 883",YISHUN,NORTH,GOVERNMENT SCHOOL,CO-ED SCHOOL,SINGLE SESSION,PRIMARY,No,No,No,No,Chinese,Malay,Tamil
AHMAD IBRAHIM SECONDARY SCHOOL,http://www.ahmadibrahimsec.moe.edu.sg,751  YISHUN AVENUE 7,768928,67585384,aiss@moe.edu.sg,"CANBERRA MRT, YISHUN MRT","117, 167, 169, 800, 811, 812, 883, 856, 858, 859, 965, 969, 980",YISHUN,NORTH,GOVERNMENT SCHOOL,CO-ED SCHOOL,SINGLE SESSION,SECONDARY,No,No,No,No,Chinese,Malay,Tamil
AI TONG SCHOOL,http://www.aitong.moe.edu.sg,100  Bright Hill Drive,579646,64547672,AITONG_SCH@MOE.EDU.SG,Bishan MRT,"410, 162, 52",BISHAN,SOUTH,GOVERNMENT-AIDED SCH,CO-ED SCHOOL,SINGLE SESSION,PRIMARY,Yes,No,No,No,Chinese,na,na
ALEXANDRA PRIMARY SCHOOL,http://alexandrapri.moe.edu.sg,2A   Prince Charles Crescent,159016,62485400,alexandra_ps@moe.edu.sg,Redhill Station  Tiong Bahru Station,"51, 122, 139, 186, 970.",BUKIT MERAH,SOUTH,GOVERNMENT SCHOOL,CO-ED SCHOOL,SINGLE SESSION,PRIMARY,No,No,No,No,Chinese,Malay,Tamil
ANCHOR GREEN PRIMARY SCHOOL,http://www.anchorgreenpri.moe.edu.sg,31   Anchorvale Drive,544969,68861356,anchorgreen_ps@moe.edu.sg,MRT : NE16-Sengkang LRT : SW7-TongKang,"Bus 372, 110, 50",SENG KANG,NORTH,GOVERNMENT SCHOOL,CO-ED SCHOOL,SINGLE SESSION,PRIMARY,No,No,No,No,Chinese,Malay,Tamil
ANDERSON PRIMARY SCHOOL,http://www.andersonpri.moe.edu.sg,19   ANG MO KIO AVE 9,569785,64560340,anderson_ps@moe.edu.sg,Yio Chu Kang MRT Station,"Ang Mo Kio Ave 9 - Bus 76, 265, 268",ANG MO KIO,NORTH,GOVERNMENT SCHOOL,CO-ED SCHOOL,SINGLE SESSION,PRIMARY,No,No,No,No,Chinese,Malay,Tamil
ANDERSON SECONDARY SCHOOL,http://www.andersonsec.moe.edu.sg,10   ANG MO KIO STREET 53,569206,64598303,anderson_ss@moe.edu.sg,"ANG MO KIO MRT, YIO CHU KANG MRT","265, 548, 45, 50, 72",ANG MO KIO,NORTH,GOVERNMENT SCHOOL,CO-ED SCHOOL,SINGLE SESSION,SECONDARY,No,Yes,No,No,Chinese,Malay,Tamil
ANDERSON SERANGOON JUNIOR COLLEGE,www.asrjc.moe.edu.sg,4500 ANG MO KIO AVENUE 6,569843,64596822,asrjc@moe.edu.sg,Yio Chu Kang MRT Station,"13, 45, 86, 162, 269, 825, 851, 852, 853, 860",ANG MO KIO,NORTH,GOVERNMENT SCHOOL,CO-ED SCHOOL,FULL DAY,JUNIOR COLLEGE,No,No,No,No,Chinese,Malay,Tamil
ANG MO KIO PRIMARY SCHOOL,http://www.angmokiopri.moe.edu.sg,20   ANG MO KIO AVENUE 3,569920,64520794,AMKPS@MOE.EDU.SG,Ang Mo Kio MRT Station,"76,132,165,166,169,200,000,000",ANG MO KIO,SOUTH,GOVERNMENT SCHOOL,CO-ED SCHOOL,SINGLE SESSION,PRIMARY,No,No,No,No,Chinese,Malay,Tamil
ANG MO KIO SECONDARY SCHOOL,http://www.angmokiosec.moe.edu.sg,6    ANG MO KIO STREET 22,569362,64548605,AMKSS@MOE.EDU.SG,ANG MO KIO MRT,"13, 74, 76, 88, 130, 132, 133, 136, 165, 169, 265, 268, 269, 851, 852",ANG MO KIO,SOUTH,GOVERNMENT SCHOOL,CO-ED SCHOOL,SINGLE SESSION,SECONDARY,No,No,No,No,Chinese,Malay,Tamil
ANGLICAN HIGH SCHOOL,http://www.anglicanhigh.moe.edu.sg,600  UPPER CHANGI ROAD,487012,62414866,AHS@MOE.EDU.SG,TANAH MERAH MRT,"2, 9, 12, 14, 24, 31, 35, 38, 45, 47, 48",BEDOK,EAST,GOVERNMENT-AIDED SCH,CO-ED SCHOOL,SINGLE SESSION,SECONDARY,Yes,Yes,No,No,Chinese,na,na
ANGLO-CHINESE JUNIOR COLLEGE,http://www.acjc.edu.sg,25   DOVER CLOSE EAST,139745,67750511,acjc@acjc.edu.sg,Buona Vista,"74,95,100,105,106,111,145,147,191,196,198,602",QUEENSTOWN,WEST,GOVERNMENT-AIDED SCH,CO-ED SCHOOL,FULL DAY,JUNIOR COLLEGE,No,No,No,No,na,na,na
ANGLO-CHINESE SCHOOL (BARKER ROAD),http://www.acsbr.moe.edu.sg,60   BARKER ROAD,309919,62561633,acsbr@moe.edu.sg,"NEWTON MRT, STEVENS MRT","48, 66, 67, 170, 960, 972",NOVENA,SOUTH,GOVERNMENT-AIDED SCH,BOYS' SCHOOL,SINGLE SESSION,SECONDARY,No,No,No,No,Chinese,Malay,Tamil
ANGLO-CHINESE SCHOOL (INDEPENDENT),http://www.acsindep.moe.edu.sg,121  DOVER ROAD,139650,67731633,ACIS@MOE.EDU.SG,"DOVER MRT, BUONA VISTA MRT, ONE-NORTH MRT","33, 74, 166, 196",QUEENSTOWN,SOUTH,INDEPENDENT SCHOOL,CO-ED SCHOOL,SINGLE SESSION,MIXED LEVELS,No,No,Yes,Yes,Chinese,Malay,Tamil
ANGLO-CHINESE SCHOOL (JUNIOR),www.acsj.moe.edu.sg,16   WINSTEDT ROAD,227988,67337911,acjs@moe.edu.sg,Newton MRT Station,"5, 54, 124, 143, 162, 162M, 167, 167e, 518, 518A, 972M",CENTRAL,SOUTH,GOVERNMENT-AIDED SCH,BOYS' SCHOOL,SINGLE SESSION,PRIMARY,No,No,No,No,Chinese,Malay,Tamil
ANGLO-CHINESE SCHOOL (PRIMARY),http://www.acspri.moe.edu.sg/,50   BARKER ROAD,309918,62501633,acps@moe.edu.sg,Newton MRT Station,"Bus 48, 66, 67, 170, 603, 972M",NOVENA,SOUTH,GOVERNMENT-AIDED SCH,BOYS' SCHOOL,SINGLE SESSION,PRIMARY,No,No,Yes,No,Chinese,Malay,Tamil
ANGSANA PRIMARY SCHOOL,www.angsanapri.moe.edu.sg,3    Tampines Street 22,529366,67830427,angsana_pri@moe.edu.sg,Tampines and Simei Stations,"Bus Service 8, 17, 18, 20, 28, 34, 39, 59, 518, Feeder Bus Service 292",TAMPINES,EAST,GOVERNMENT SCHOOL,CO-ED SCHOOL,SINGLE SESSION,PRIMARY,No,No,No,No,Chinese,Malay,Tamil
ASSUMPTION ENGLISH SCHOOL,http://www.assumptionenglish.moe.edu.sg,622  UPPER BUKIT TIMAH ROAD,678117,65729100,AES@MOE.EDU.SG,CASHEW MRT,"67, 75, 170, 176, 178, 184, 961, 963, 970",BUKIT PANJANG,WEST,GOVERNMENT-AIDED SCH,CO-ED SCHOOL,SINGLE SESSION,SECONDARY,No,No,No,No,Chinese,Malay,Tamil
ASSUMPTION PATHWAY SCHOOL,http://www.aps.edu.sg,30   Cashew Road,679697,62793000,aps@schools.gov.sg,"DOWNTOWN LINE 2, CASHEW MRT","SBS Transit No 170    SMRT No 67, 75, 171, 176, 178, 184, 961, 963 & 970",BUKIT PANJANG,WEST,SPECIALISED SCHOOL,CO-ED SCHOOL,SINGLE SESSION,SECONDARY,No,No,No,No,Chinese,Malay,Tamil
BARTLEY SECONDARY SCHOOL,http://www.bartleysec.moe.edu.sg,10   JALAN BUNGA RAMPAI,538403,62889013,bartley_ss@moe.edu.sg,"BARTLEY MRT, TAI SENG MRT","22, 24, 28, 43, 58, 62, 70, 70M, 76, 80, 80A, 93, 158",TOA PAYOH,SOUTH,GOVERNMENT SCHOOL,CO-ED SCHOOL,SINGLE SESSION,SECONDARY,No,No,No,No,Chinese,Malay,Tamil
BEACON PRIMARY SCHOOL,https://beaconpri.moe.edu.sg/,36   Bukit Panjang Ring Road,679944,67697255,beaconprisch@moe.edu.sg,"Bangkit LRT, Fajar LRT Station","920, 922, 971, 972, 972A, 972M, 976",BUKIT PANJANG,WEST,GOVERNMENT SCHOOL,CO-ED SCHOOL,SINGLE SESSION,PRIMARY,No,No,No,No,Chinese,Malay,Tamil
BEATTY SECONDARY SCHOOL,http://www.beattysec.moe.edu.sg,1    TOA PAYOH NORTH,318990,62569108,BEATTY_SS@MOE.EDU.SG,"BRADDELL MRT, TOA PAYOH MRT","28, 56, 73, 88, 93, 105, 153, 155, 157, 159, 163, 231, 232",TOA PAYOH,SOUTH,GOVERNMENT SCHOOL,CO-ED SCHOOL,SINGLE SESSION,SECONDARY,No,No,No,No,Chinese,Malay,Tamil
BEDOK GREEN PRIMARY SCHOOL,http://www.bedokgreenpri.moe.edu.sg,1    BEDOK SOUTH AVE 2,469317,64425416,bgps@moe.edu.sg,"Bedok MRT Station, Tanah Merah MRT Station","Bus No. 2, 9, 12, 24, 31, 34 & 38",BEDOK,EAST,GOVERNMENT SCHOOL,CO-ED SCHOOL,SINGLE SESSION,PRIMARY,No,No,No,No,Chinese,Malay,Tamil
BEDOK GREEN SECONDARY SCHOOL,http://www.bedokgreensec.moe.edu.sg,360  BEDOK NORTH AVE 3,469722,64463301,BGSS@MOE.EDU.SG,"BEDOK MRT, BEDOK RESERVOIR MRT","14, 17, 18, 28, 46, 66, 67, 69, 168, 222, 228, 506",BEDOK,EAST,GOVERNMENT SCHOOL,CO-ED SCHOOL,SINGLE SESSION,SECONDARY,No,No,No,No,Chinese,Malay,Tamil
BEDOK SOUTH SECONDARY SCHOOL,http://www.bedoksouthsec.moe.edu.sg,1    JALAN LANGGAR BEDOK,468585,64414479,bsss@moe.edu.sg,TANAH MERAH MRT,"10, 14, 45",BEDOK,EAST,GOVERNMENT SCHOOL,CO-ED SCHOOL,SINGLE SESSION,SECONDARY,No,No,No,No,Chinese,Malay,Tamil
BEDOK VIEW SECONDARY SCHOOL,http://www.bedokviewsec.moe.edu.sg,6    BEDOK SOUTH AVENUE 3,469293,64430563,bedokview_ss@moe.edu.sg,TANAH MERAH MRT,"2, 9, 12, 14, 24, 25, 31, 35, 38, 45, 46, 47, 48, 506",BEDOK,EAST,GOVERNMENT SCHOOL,CO-ED SCHOOL,SINGLE SESSION,SECONDARY,No,No,No,No,Chinese,Malay,Tamil
BENDEMEER PRIMARY SCHOOL,http://www.bendemeerpri.moe.edu.sg/,91   BENDEMEER ROAD,339948,62982911,BENDEMEER_PS@MOE.EDU.SG,"Boon Keng, Kallang","13 23 31 61 64 65 65M 66 125, 125X ,133,140,147,853,857,985",KALLANG,SOUTH,GOVERNMENT SCHOOL,CO-ED SCHOOL,SINGLE SESSION,PRIMARY,No,No,No,No,Chinese,Malay,Tamil
BENDEMEER SECONDARY SCHOOL,http://www.bendemeersec.moe.edu.sg,1    ST WILFRED ROAD,327919,62927616,BENDEMEER_SS@MOE.EDU.SG,BOON KENG MRT,"13,  23,  31,  64,  65,  66, 125, 133, 140, 147, 857, 985",KALLANG,SOUTH,GOVERNMENT SCHOOL,CO-ED SCHOOL,SINGLE SESSION,SECONDARY,No,No,No,No,Chinese,Malay,Tamil
BLANGAH RISE PRIMARY SCHOOL,http://www.blangahrisepri.moe.edu.sg/,91   TELOK BLANGAH HEIGHTS,109100,62717387,BRPS@MOE.EDU.SG,"Telok Blangah, Tiong Bahru & Redhill",SBS 273 & 124,BUKIT MERAH,SOUTH,GOVERNMENT SCHOOL,CO-ED SCHOOL,SINGLE SESSION,PRIMARY,No,No,No,No,Chinese,Malay,Tamil
BOON LAY GARDEN PRIMARY SCHOOL,www.boonlaygardenpri.moe.edu.sg,20   BOON LAY DRIVE,649930,63160998,BLGPS@MOE.EDU.SG,Lakeside & Boon Lay,"30,99,154,178,180,187,240,246",JURONG WEST,WEST,GOVERNMENT SCHOOL,CO-ED SCHOOL,SINGLE SESSION,PRIMARY,No,No,No,No,Chinese,Malay,Tamil
BOON LAY SECONDARY SCHOOL,https://www.boonlaysec.moe.edu.sg,11   JURONG WEST STREET 65,648354,67940161,BLSS@MOE.EDU.SG,BOON LAY MRT,"99, 181, 192, 193, 242, 243, 257, 502, 502A",JURONG WEST,WEST,GOVERNMENT SCHOOL,CO-ED SCHOOL,SINGLE SESSION,SECONDARY,No,No,No,No,Chinese,Malay,Tamil
BOWEN SECONDARY SCHOOL,http://www.bowensec.moe.edu.sg,2    LORONG NAPIRI,547529,63859466,BOWEN_SS@MOE.EDU.SG,"HOUGANG MRT, SERANGOON MRT, SENGKANG MRT","43, 70, 73, 103, 109, 156, 854, 25, 74, 74E, 76, 112, 132, 147, 165, 55",HOUGANG,NORTH,GOVERNMENT SCHOOL,CO-ED SCHOOL,SINGLE SESSION,SECONDARY,No,No,No,No,Chinese,Malay,Tamil
BROADRICK SECONDARY SCHOOL,http://www.broadricksec.moe.edu.sg,61   DAKOTA CRESCENT,399935,63445025,BROADRICK_SS@MOE.EDU.SG,DAKOTA MRT,"10, 16, 30, 31, 32, 33",GEYLANG,EAST,GOVERNMENT SCHOOL,CO-ED SCHOOL,SINGLE SESSION,SECONDARY,No,No,No,No,Chinese,Malay,Tamil
BUKIT BATOK SECONDARY SCHOOL,http://www.bukitbatoksec.moe.edu.sg,50   BUKIT BATOK WEST AVE 8,658962,65663121,bbss@moe.edu.sg,BUKIT BATOK MRT,"66, 66B, 157, 174, 174E, 178, 506, 941, 991",BUKIT BATOK,WEST,GOVERNMENT SCHOOL,CO-ED SCHOOL,SINGLE SESSION,SECONDARY,No,No,No,No,Chinese,Malay,Tamil
BUKIT MERAH SECONDARY SCHOOL,http://www.bukitmerahsec.moe.edu.sg,10   LENGKOK BAHRU,159050,64748934,bmss@moe.edu.sg,REDHILL MRT,"14, 32, 33, 63, 64, 120, 132, 139, 145, 147, 196, 197, 855, 961",BUKIT MERAH,SOUTH,GOVERNMENT SCHOOL,CO-ED SCHOOL,SINGLE SESSION,SECONDARY,No,No,No,No,Chinese,Malay,Tamil
BUKIT PANJANG GOVT. HIGH SCHOOL,http://www.bpghs.moe.edu.sg,7    CHOA CHU KANG AVE 4,689809,67691031,BPGHS@MOE.EDU.SG,CHOA CHU KANG MRT,"300, 983",CHOA CHU KANG,WEST,GOVERNMENT SCHOOL,CO-ED SCHOOL,SINGLE SESSION,SECONDARY,No,Yes,No,No,Chinese,Malay,Tamil
BUKIT PANJANG PRIMARY SCHOOL,http://www.bukitpanjangpri.moe.edu.sg,109  CASHEW ROAD,679676,67691912,BPPS@MOE.EDU.SG,From Pending LRT station to Choa Chu Kang MRT station,"75, 184",BUKIT PANJANG,WEST,GOVERNMENT SCHOOL,CO-ED SCHOOL,SINGLE SESSION,PRIMARY,No,No,No,No,Chinese,Malay,Tamil
BUKIT TIMAH PRIMARY SCHOOL,http://www.bukittimahpri.moe.edu.sg,111  Lorong Kismis,598112,64662863,bukittimahps@moe.edu.sg,"Beauty World, Bukit Batok and Clementi Stations",173,BUKIT TIMAH,WEST,GOVERNMENT SCHOOL,CO-ED SCHOOL,SINGLE SESSION,PRIMARY,No,No,No,No,Chinese,Malay,Tamil
BUKIT VIEW PRIMARY SCHOOL,http://www.bukitviewpri.moe.edu.sg,18   BUKIT BATOK STREET 21,659634,65661980,bukitview_ps@moe.edu.sg,Bukit Batok MRT Station,"173,157,178,852,66,106,61,506,963,77",BUKIT BATOK,WEST,GOVERNMENT SCHOOL,CO-ED SCHOOL,SINGLE SESSION,PRIMARY,No,No,No,No,Chinese,Malay,Tamil
BUKIT VIEW SECONDARY SCHOOL,https://www.bukitviewsec.moe.edu.sg,16   BUKIT BATOK STREET 21,659633,65661990,BUKITVIEW_SS@MOE.EDU.SG,BUKIT BATOK MRT,"61, 66, 77, 106, 157, 173, 174, 178, 189, 506, 653, 852, 963, 990",BUKIT BATOK,WEST,GOVERNMENT SCHOOL,CO-ED SCHOOL,SINGLE SESSION,SECONDARY,No,No,No,No,Chinese,Malay,Tamil
CANBERRA PRIMARY SCHOOL,http://www.canberrapri.moe.edu.sg,21   ADMIRALTY DRIVE,757714,67597433,CANBERRA_PS@MOE.EDU.SG,Sembawang MRT Station,Bus No. 859,SEMBAWANG,NORTH,GOVERNMENT SCHOOL,CO-ED SCHOOL,SINGLE SESSION,PRIMARY,No,No,No,No,Chinese,Malay,Tamil
CANBERRA SECONDARY SCHOOL,https://canberrasec.moe.edu.sg,51   SEMBAWANG DRIVE,757699,67585070,CANBERRA_SS@MOE.EDU.SG,SEMBAWANG MRT,"859, 962",SEMBAWANG,NORTH,GOVERNMENT SCHOOL,CO-ED SCHOOL,SINGLE SESSION,SECONDARY,No,No,No,No,Chinese,Malay,Tamil
CANOSSA CATHOLIC PRIMARY SCHOOL,https://canossacatholicpri.moe.edu.sg/,1    Sallim Road,387621,68441418,ccps@moe.edu.sg,Nearest MRT station: Mattar Station (about 7-minute walk),"Aljunied Road (same side as CCPS): 62, 64, 100    Aljunied Road (opposite CCPS): 61, 62, 64, 66, 100, 135, 154, 155    Merpati Rd (after Jln Anggerek): 40, 61, 63, 65, 66, 135,",GEYLANG,EAST,GOVERNMENT-AIDED SCH,CO-ED SCHOOL,SINGLE SESSION,PRIMARY,No,No,No,No,Chinese,Malay,Tamil
CANTONMENT PRIMARY SCHOOL,http://www.cantonmentpri.moe.edu.sg,1    Cantonment Close,88256,65119555,cantonment_ps@moe.edu.sg,Tanjong Pagar Outram Park,"75, 167, 196",BUKIT MERAH,SOUTH,GOVERNMENT SCHOOL,CO-ED SCHOOL,SINGLE SESSION,PRIMARY,No,No,No,No,Chinese,Malay,Tamil
CASUARINA PRIMARY SCHOOL,http://www.casuarinapri.moe.edu.sg/,30   PASIR RIS ST 41,518935,65837132,CASUARINA_PS@MOE.EDU.SG,Pasir Ris MRT Station,"Nos. 12, 21 & 358",PASIR RIS,EAST,GOVERNMENT SCHOOL,CO-ED SCHOOL,SINGLE SESSION,PRIMARY,No,No,No,No,Chinese,Malay,Tamil
CATHOLIC HIGH SCHOOL,http://www.catholichigh.moe.edu.sg,9    BISHAN STREET 22,579767,64582177 (Secondary),chs@moe.edu.sg,BISHAN MRT,"13, 52, 54, 88, 156, 162, 162M, 410",BISHAN,NORTH,GOVERNMENT-AIDED SCH,BOYS' SCHOOL,SINGLE SESSION,MIXED LEVELS,Yes,Yes,Yes,Yes,Chinese,na,na
CATHOLIC JUNIOR COLLEGE,https://cjc.moe.edu.sg/,129  WHITLEY ROAD,297822,62524083,catholic_jc@moe.edu.sg,"Toa Payoh (NS Line),  Novena (NS Line),  Stevens (DT Line),  Caldecott (CC Line,TE Line)","105, 132, 151, 153, 154, 156, 186, 966, 985",NOVENA,SOUTH,GOVERNMENT-AIDED SCH,CO-ED SCHOOL,FULL DAY,JUNIOR COLLEGE,No,No,No,No,na,na,na
CEDAR GIRLS' SECONDARY SCHOOL,http://www.cedargirlssec.moe.edu.sg,1    CEDAR AVENUE,349692,62884909,cedargirlss@moe.edu.sg,"WOODLEIGH MRT, POTONG PASIR MRT, MATTAR MRT","8, 13, 61, 64, 65, 66, 90, 100, 107, 133, 135, 142, 147, 151, 154, 155, 853",TOA PAYOH,EAST,GOVERNMENT SCHOOL,GIRLS' SCHOOL,SINGLE SESSION,SECONDARY,No,Yes,No,Yes,Chinese,Malay,Tamil
CEDAR PRIMARY SCHOOL,Http://www.cedarpri.moe.edu.sg,15   CEDAR AVENUE,349700,62885633,CEDAR_PS@MOE.EDU.SG,Potong Pasir MRT Station,"8, 61, 64, 65, 66, 66A, 90, 90A, 100, 135, 151, 154, 155",TOA PAYOH,SOUTH,GOVERNMENT SCHOOL,CO-ED SCHOOL,SINGLE SESSION,PRIMARY,No,No,No,No,Chinese,Malay,Tamil
CHANGKAT CHANGI SECONDARY SCHOOL,http://www.changkatchangisec.moe.edu.sg,23   SIMEI ST 3,529894,67859790,CHANGKATCHGI@MOE.EDU.SG,SIMEI MRT,"5, 9, 20, 38",TAMPINES,EAST,GOVERNMENT SCHOOL,CO-ED SCHOOL,SINGLE SESSION,SECONDARY,No,No,No,No,Chinese,Malay,Tamil
CHANGKAT PRIMARY SCHOOL,http://www.changkatpri.moe.edu.sg/,11   SIMEI ST 3,529896,67830923,CHANGKAT_PS@MOE.EDU.SG,Simei MRT Station,"9,38,5",TAMPINES,EAST,GOVERNMENT SCHOOL,CO-ED SCHOOL,SINGLE SESSION,PRIMARY,No,No,No,No,Chinese,Malay,Tamil
CHIJ (KATONG) PRIMARY,http://chijkcp.moe.edu.sg/,17   MARTIA ROAD,424821,63443072,CHIJKTPS@moe.edu.sg,EUNOS PAYA LEBAR,"15, 55, 36, 16, 135, 197, 196, 31, 13, 76, 12, 10, 14, 32, 40",BEDOK,EAST,GOVERNMENT-AIDED SCH,GIRLS' SCHOOL,SINGLE SESSION,PRIMARY,No,No,No,No,Chinese,Malay,Tamil
CHIJ (KELLOCK),http://www.chijkellock.moe.edu.sg/,1    Bukit Teresa Road,99757,62730096,CHIJKS@MOE.EDU.SG,Outram Park Station,"61, 124, 143, 166",BUKIT MERAH,SOUTH,GOVERNMENT-AIDED SCH,GIRLS' SCHOOL,SINGLE SESSION,PRIMARY,No,No,No,No,Chinese,Malay,Tamil
CHIJ KATONG CONVENT,http://www.chijkatongconvent.moe.edu.sg,346  MARINE TERRACE,449150,64486433,chijktcs@moe.edu.sg,"BEDOK MRT, KEMBANGAN MRT, EUNOS MRT, PAYA LEBAR MRT","4N, 13, 16, 31, 36, 36A, 36B, 43, 47, 48, 55, 134, 135, 135A, 150, 196, 196E, 197, 853C, 763",MARINE PARADE,EAST,GOVERNMENT-AIDED SCH,GIRLS' SCHOOL,SINGLE SESSION,SECONDARY,No,Yes,No,No,Chinese,Malay,Tamil
CHIJ OUR LADY OF GOOD COUNSEL,http://www.chijourladyofgoodcounsel.moe.edu.sg,2C   Burghley Drive,558979,62886930,chijolgcs@moe.edu.sg,"Ang Mo Kio MRT, Bishan MRT, Serangoon MRT station.","317 Feeder Bus Service from Serangoon Interchange. 135,136 from Ang Mo Kio Interchange.",SERANGOON,SOUTH,GOVERNMENT-AIDED SCH,GIRLS' SCHOOL,SINGLE SESSION,PRIMARY,No,No,No,No,Chinese,Malay,Tamil
CHIJ OUR LADY OF THE NATIVITY,http://www.chijourladyofthenativity.moe.edu.sg/,1257 UPPER SERANGOON ROAD,534793,63852455,chijoln@moe.edu.sg,Hougang MRT,"74, 102, 112, 113, 119, 136, 147, 324, 672",HOUGANG,SOUTH,GOVERNMENT-AIDED SCH,GIRLS' SCHOOL,SINGLE SESSION,PRIMARY,No,No,No,No,Chinese,Malay,Tamil
CHIJ OUR LADY QUEEN OF PEACE,http://www.chijourladyqueenofpeace.moe.edu.sg/,4    Chestnut Drive,679287,67691529,CHIJOLQP@MOE.EDU.SG,Cashew and Hillview,"180, 67, 171, 176, 177, 178, 184, 961, 963, 970",BUKIT PANJANG,WEST,GOVERNMENT-AIDED SCH,GIRLS' SCHOOL,SINGLE SESSION,PRIMARY,No,No,No,No,Chinese,Malay,Tamil
CHIJ PRIMARY (TOA PAYOH),http://www.chijpritoapayoh.moe.edu.sg,628  Lorong 1 Toa Payoh,319765,63532164,CHIJTPPS@MOE.EDU.SG,Toa Payoh,"59, 231, 141",TOA PAYOH,SOUTH,GOVERNMENT-AIDED SCH,GIRLS' SCHOOL,SINGLE SESSION,PRIMARY,No,No,No,No,Chinese,Malay,Tamil
CHIJ SECONDARY (TOA PAYOH),http://www.chijsec.edu.sg,626  LORONG 1 TOA PAYOH,319764,63534972,CHIJTPSS@MOE.EDU.SG,TOA PAYOH MRT,"59, 141, 231",TOA PAYOH,SOUTH,GOVERNMENT-AIDED SCH,GIRLS' SCHOOL,SINGLE SESSION,SECONDARY,No,Yes,No,No,Chinese,Malay,Tamil
CHIJ ST. JOSEPH'S CONVENT,http://www.chijstjosephsconvent.moe.edu.sg,62   SENGKANG EAST WAY,548595,64897580,CHIJSJCS@MOE.EDU.SG,SENGKANG MRT,"50, 82, 86, 88, 119, 136",SENG KANG,NORTH,GOVERNMENT-AIDED SCH,GIRLS' SCHOOL,SINGLE SESSION,SECONDARY,No,No,No,No,Chinese,Malay,Tamil
CHIJ ST. NICHOLAS GIRLS' SCHOOL,http://www.chijstnicholasgirls.moe.edu.sg,501  ANG MO KIO STREET 13,569405,63541839 (Secondary),chijsng_sec@moe.edu.sg,"ANG MO KIO MRT, YIO CHU KANG MRT, MAYFLOWER MRT (End 2021)","76, 265, 268, 269",ANG MO KIO,NORTH,GOVERNMENT-AIDED SCH,GIRLS' SCHOOL,SINGLE SESSION,MIXED LEVELS,Yes,Yes,No,Yes,Chinese,na,na
CHIJ ST. THERESA'S CONVENT,http://www.chijsttheresasconvent.moe.edu.sg,160  LOWER DELTA ROAD,99138,64775777,CHIJSTCS@MOE.EDU.SG,"HARBOURFRONT MRT, TIONG BAHRU MRT","65, 121, 123, 123M, 124, 131, 131M, 195, 195A, 272, 855",BUKIT MERAH,SOUTH,GOVERNMENT-AIDED SCH,GIRLS' SCHOOL,SINGLE SESSION,SECONDARY,No,No,No,No,Chinese,Malay,Tamil
CHONGFU SCHOOL,http://www.chongfu.moe.edu.sg/,170  YISHUN AVENUE 6,768959,67585527,CFS@MOE.EDU.SG,Yishun MRT station,Feeder Service 811,YISHUN,NORTH,GOVERNMENT-AIDED SCH,CO-ED SCHOOL,SINGLE SESSION,PRIMARY,No,No,No,No,Chinese,Malay,Tamil
CHONGZHENG PRIMARY SCHOOL,http://www.chongzhengpri.moe.edu.sg,1    TAMPINES STREET 21,529392,67819002,czps@moe.edu.sg,Tampines MRT Station,"3,3A, 8, 17, 18, 20, 28, 34, 39, 59, 518",TAMPINES,EAST,GOVERNMENT SCHOOL,CO-ED SCHOOL,SINGLE SESSION,PRIMARY,No,No,No,No,Chinese,Malay,Tamil
CHRIST CHURCH SECONDARY SCHOOL,http://www.christchurchsec.moe.edu.sg,20   WOODLANDS DRIVE 17,737924,68933297,ccss@moe.edu.sg,"WOODLANDS MRT, WOODLANDS SOUTH MRT","901, 901M, 665",WOODLANDS,NORTH,GOVERNMENT-AIDED SCH,CO-ED SCHOOL,SINGLE SESSION,SECONDARY,No,No,No,No,Chinese,Malay,Tamil
CHUA CHU KANG PRIMARY SCHOOL,http://www.chuachukangpri.moe.edu.sg,20   CHOA CHU KANG AVENUE 2,689905,67661574,cckps@moe.edu.sg,Choa Chu Kang MRT Station and Southview LRT Station,"Bus Service 300, 301 and NR3 along Chua Chu Kang Ave 2 Bus Service 172, 301, 991 along Chua Chu Kang Ave 1",CHOA CHU KANG,WEST,GOVERNMENT SCHOOL,CO-ED SCHOOL,SINGLE SESSION,PRIMARY,No,No,No,No,Chinese,Malay,Tamil
CHUA CHU KANG SECONDARY SCHOOL,http://www.chuachukangsec.moe.edu.sg,3    TECK WHYE CRESCENT,688845,67655228,CCKSS@MOE.EDU.SG,CHOA CHU KANG MRT,"190, 307, 975, 982E, 985",CHOA CHU KANG,WEST,GOVERNMENT SCHOOL,CO-ED SCHOOL,SINGLE SESSION,SECONDARY,No,No,No,No,Chinese,Malay,Tamil
CHUNG CHENG HIGH SCHOOL (MAIN),http://www.chungchenghighmain.moe.edu.sg,50   GOODMAN ROAD,439012,63441393,CCHMS@MOE.EDU.SG,DAKOTA MRT,"10, 12, 14, 16, 16M, 30, 31, 32, 33, 40, 43, 135, 134, 196, 197",MARINE PARADE,EAST,GOVERNMENT-AIDED SCH,CO-ED SCHOOL,SINGLE SESSION,SECONDARY,Yes,Yes,No,No,Chinese,na,na
CHUNG CHENG HIGH SCHOOL (YISHUN),http://www.chungchenghighyishun.moe.edu.sg,11   YISHUN STREET 61,768547,67583912,cchys@moe.edu.sg,KHATIB MRT,"85, 811, 812, 851, 852, 853, 854, 855, 858, 860, 965, 969",YISHUN,NORTH,GOVERNMENT-AIDED SCH,CO-ED SCHOOL,SINGLE SESSION,SECONDARY,No,No,No,No,Chinese,Malay,Tamil
CLEMENTI PRIMARY SCHOOL,http://www.clementipri.moe.edu.sg,8    CLEMENTI AVE 3,129903,67797449,admin_clementi_ps@moe.edu.sg,Clementi MRT Station,We are just beside Clementi Bus Interchange.,CLEMENTI,WEST,GOVERNMENT SCHOOL,CO-ED SCHOOL,SINGLE SESSION,PRIMARY,No,No,No,No,Chinese,Malay,Tamil
CLEMENTI TOWN SECONDARY SCHOOL,http://www.clementitownsec.moe.edu.sg,10   CLEMENTI AVE 3,129904,67777362,ctss@moe.edu.sg,CLEMENTI MRT,"14, 105, 106, 147, 156, 165, 166, 173, 175, 184, 196, 282, 284, 285, 7, 96, 99",CLEMENTI,WEST,GOVERNMENT SCHOOL,CO-ED SCHOOL,SINGLE SESSION,SECONDARY,No,No,No,No,Chinese,Malay,Tamil
COMMONWEALTH SECONDARY SCHOOL,http://www.commonwealthsec.moe.edu.sg,698  WEST COAST ROAD,608784,65606866,cwss@moe.edu.sg,"JURONG EAST MRT, CLEMENTI MRT","30, 51, 78, 79, 143, 143M, 176, 201",JURONG EAST,WEST,GOVERNMENT SCHOOL,CO-ED SCHOOL,SINGLE SESSION,SECONDARY,No,Yes,No,No,Chinese,Malay,Tamil
COMPASSVALE PRIMARY SCHOOL,http://www.compassvalepri.moe.edu.sg/,21   COMPASSVALE ST,545091,63882819,cvps@moe.edu.sg,Sengkang,"83 (along Compassvale Street) 27, 89, 89E & 965 (along Compassvale Road).",SENG KANG,NORTH,GOVERNMENT SCHOOL,CO-ED SCHOOL,SINGLE SESSION,PRIMARY,No,No,No,No,Chinese,Malay,Tamil
COMPASSVALE SECONDARY SCHOOL,http://www.compassvalesec.moe.edu.sg,51   COMPASSVALE CRESCENT,545083,68815047,CVSS@MOE.EDU.SG,"SENGKANG MRT, COMPASSVALE LRT","27, 27A, 82,  83,  86,  88,  89, 89E, 136, 161, 371, 965",SENG KANG,NORTH,GOVERNMENT SCHOOL,CO-ED SCHOOL,SINGLE SESSION,SECONDARY,No,No,No,No,Chinese,Malay,Tamil
CONCORD PRIMARY SCHOOL,http://www.concordpri.moe.edu.sg/,3    CHOA CHU KANG AVE 4,689814,67632139,CONCORD_PS@MOE.EDU.SG,Choa Chu Kang MRT Station,Bus 300 and 983,CHOA CHU KANG,WEST,GOVERNMENT SCHOOL,CO-ED SCHOOL,SINGLE SESSION,PRIMARY,No,No,No,No,Chinese,Malay,Tamil
CORPORATION PRIMARY SCHOOL,http://www.corporationpri.moe.edu.sg,31   JURONG WEST STREET 24,648347,67957381,cps@moe.edu.sg,BOON LAY STATION LAKESIDE STATION,"157 (from Boon Lay Interchange), or 185",JURONG WEST,WEST,GOVERNMENT SCHOOL,CO-ED SCHOOL,SINGLE SESSION,PRIMARY,No,No,No,No,Chinese,Malay,Tamil
CRESCENT GIRLS' SCHOOL,http://www.crescent.edu.sg,357  TANGLIN ROAD,247961,64758711,CRESCENTGIRL@MOE.EDU.SG,REDHILL MRT,"32, 111, 122, 132, 51, 139, 186, 970",BUKIT MERAH,SOUTH,GOVERNMENT SCHOOL,GIRLS' SCHOOL,SINGLE SESSION,SECONDARY,No,Yes,No,No,Chinese,Malay,Tamil
CREST SECONDARY SCHOOL,http://www.crestsec.edu.sg,561  JURONG EAST STREET 24,609561,68992779,info@crestsec.edu.sg,"BUKIT BATOK MRT, JURONG EAST MRT","41, 52, 98, 98M, 105, 176, 183, 187, 188, 188R, 333, 502, 868, 990",JURONG EAST,WEST,SPECIALISED SCHOOL,CO-ED SCHOOL,SINGLE SESSION,SECONDARY,No,No,No,No,Chinese,Malay,Tamil
DAMAI PRIMARY SCHOOL,http://www.damaipri.moe.edu.sg,52   BEDOK RESERVOIR CRESCENT,479226,64456483,DAMAI_PS@MOE.EDU.SG,Bedok North MRT Station,"Bus 228,66,65,22,21,5 and 506",BEDOK,EAST,GOVERNMENT SCHOOL,CO-ED SCHOOL,SINGLE SESSION,PRIMARY,No,No,No,No,Chinese,Malay,Tamil
DAMAI SECONDARY SCHOOL,http://www.damaisec.moe.edu.sg,4800 BEDOK RESERVOIR ROAD,479229,64436848,damai_ss@moe.edu.sg,"BEDOK RESERVOIR MRT, BEDOK MRT, TAMPINES MRT","5, 21, 22, 59, 65, 66, 228, 506, CT18",BEDOK,EAST,GOVERNMENT SCHOOL,CO-ED SCHOOL,SINGLE SESSION,SECONDARY,No,No,No,No,Chinese,Malay,Tamil
DAZHONG PRIMARY SCHOOL,http://www.dazhongpri.moe.edu.sg,35   BUKIT BATOK STREET 31,659441,65658002,dazhong_ps@moe.edu.sg,Bukit Gombak,"187, 188",BUKIT BATOK,WEST,GOVERNMENT SCHOOL,CO-ED SCHOOL,SINGLE SESSION,PRIMARY,No,No,No,No,Chinese,Malay,Tamil
DE LA SALLE SCHOOL,http://www.delasalle.moe.edu.sg,11   Choa Chu Kang St 52,689285,67667675,dlss@moe.edu.sg,YEW TEE MRT,"TIBS 302, 979",CHOA CHU KANG,WEST,GOVERNMENT-AIDED SCH,CO-ED SCHOOL,SINGLE SESSION,PRIMARY,No,No,No,No,Chinese,Malay,Tamil
DEYI SECONDARY SCHOOL,http://www.deyisec.moe.edu.sg,1    ANG MO KIO STREET 42,569277,64561565,DEYI_SS@MOE.EDU.SG,ANG MO KIO MRT,"22, 24, 25, 45, 50, 55, 73, 74, 76, 88, 132, 135, 159, 162, 165, 261, 262, 268, 652, 853",ANG MO KIO,SOUTH,GOVERNMENT SCHOOL,CO-ED SCHOOL,SINGLE SESSION,SECONDARY,No,No,No,No,Chinese,Malay,Tamil
DUNEARN SECONDARY SCHOOL,http://www.dunearnsec.moe.edu.sg,21   BUKIT BATOK WEST AVENUE 2,659204,65653692,DUNEARN_SS@MOE.EDU.SG,"BUKIT BATOK MRT, BUKIT GOMBAK MRT","160, 180, 187, 188, 945, 947, 985",BUKIT BATOK,WEST,GOVERNMENT SCHOOL,CO-ED SCHOOL,SINGLE SESSION,SECONDARY,No,No,No,No,Chinese,Malay,Tamil
DUNMAN HIGH SCHOOL,http://www.dunmanhigh.moe.edu.sg,10   TANJONG RHU ROAD,436895,63450533,DHS@MOE.EDU.SG,"ALJUNIED MRT, KALLANG MRT, MOUNTBATTEN MRT","12, 14, 30, 158, 196",KALLANG,EAST,GOVERNMENT SCHOOL,CO-ED SCHOOL,SINGLE SESSION,MIXED LEVELS,Yes,Yes,Yes,Yes,Chinese,na,na
DUNMAN SECONDARY SCHOOL,http://www.dunmansec.moe.edu.sg,21   TAMPINES STREET 45,529093,67862668,DUNMAN_SS@MOE.EDU.SG,TAMPINES EAST MRT,"28, 29, 293",TAMPINES,EAST,GOVERNMENT SCHOOL,CO-ED SCHOOL,SINGLE SESSION,SECONDARY,No,Yes,No,No,Chinese,Malay,Tamil
EAST SPRING PRIMARY SCHOOL,http://www.eastspringpri.moe.edu.sg,31   TAMPINES ST 33,529258,67866192,esps@moe.edu.sg,Tampines,"291, 28,18",TAMPINES,EAST,GOVERNMENT SCHOOL,CO-ED SCHOOL,SINGLE SESSION,PRIMARY,No,No,No,No,Chinese,Malay,Tamil
EAST SPRING SECONDARY SCHOOL,http://www.eastspringsec.moe.edu.sg,30   TAMPINES STREET 34,529231,65873805,esss@moe.edu.sg,"TAMPINES MRT, TAMPINES EAST MRT","3, 4, 9, 12, 17, 18, 19, 21, 28, 29, 34, 37, 39, 59, 81, 291, 518",TAMPINES,EAST,GOVERNMENT SCHOOL,CO-ED SCHOOL,SINGLE SESSION,SECONDARY,No,No,No,No,Chinese,Malay,Tamil
EDGEFIELD PRIMARY SCHOOL,http://www.edgefieldpri.moe.edu.sg,41   EDGEFIELD PLAINS,828869,63126091,edgefield_ps@moe.edu.sg,Punggol MRT,"3, 34, 62, 82, 83, 136",PUNGGOL,NORTH,GOVERNMENT SCHOOL,CO-ED SCHOOL,SINGLE SESSION,PRIMARY,No,No,No,No,Chinese,Malay,Tamil
EDGEFIELD SECONDARY SCHOOL,http://www.edgefieldsec.moe.edu.sg,36   PUNGGOL FIELD,828814,68839511,edgefield_ss@moe.edu.sg,PUNGGOL MRT,"3, 34, 62, 82, 83, 119, 136, 381, 382G",PUNGGOL,NORTH,GOVERNMENT SCHOOL,CO-ED SCHOOL,SINGLE SESSION,SECONDARY,No,No,No,No,Chinese,Malay,Tamil
ELIAS PARK PRIMARY SCHOOL,http://www.eliasparkpri.moe.edu.sg,11   PASIR RIS STREET 52,518866,65844393,epps@moe.edu.sg,Pasir Ris MRT,"3, 15, 39, 53, 81, 88, 89, 357, 403, 518",PASIR RIS,EAST,GOVERNMENT SCHOOL,CO-ED SCHOOL,SINGLE SESSION,PRIMARY,No,No,No,No,Chinese,Malay,Tamil
ENDEAVOUR PRIMARY SCHOOL,https://endeavourpri.moe.edu.sg/,10   Admiralty Link,757521,64824650,endeavour_ps@moe.edu.sg,Sembawang MRT Station,"859, 962",SEMBAWANG,NORTH,GOVERNMENT SCHOOL,CO-ED SCHOOL,SINGLE SESSION,PRIMARY,No,No,No,No,Chinese,Malay,na
EUNOIA JUNIOR COLLEGE,http://www.eunoiajc.moe.edu.sg,2    Sin Ming Place,573838,63518388,eunoiajc@moe.edu.sg,"Bishan MRT Station, Marymount MRT Station, Ang Mo Kio MRT Station","13, 52, 74, 88, 130, 410G, 410W, 851, 852",BISHAN,NORTH,GOVERNMENT SCHOOL,CO-ED SCHOOL,FULL DAY,JUNIOR COLLEGE,No,No,No,Yes,Chinese,Malay,Tamil
EUNOS PRIMARY SCHOOL,http://www.eunospri.moe.edu.sg/,95   JALAN EUNOS,419529,67463336,eunos_ps@moe.edu.sg,Nearest MRT Station - Eunos,"Bus Services (SBS): 15, 21, 25, 51, 55, 63, 93, 94, 60 Bus Services (SMRT) : 61, 854, 966",GEYLANG,EAST,GOVERNMENT SCHOOL,CO-ED SCHOOL,SINGLE SESSION,PRIMARY,No,No,No,No,Chinese,Malay,Tamil
EVERGREEN PRIMARY SCHOOL,http://www.evergreenpri.moe.edu.sg/,31   WOODLANDS CIRCLE,738908,63687705,EVERGREEN_PS@MOE.EDU.SG,Admiralty,"913(front), 911 & 858(back)",WOODLANDS,NORTH,GOVERNMENT SCHOOL,CO-ED SCHOOL,SINGLE SESSION,PRIMARY,No,No,No,No,Chinese,Malay,Tamil
EVERGREEN SECONDARY SCHOOL,http://www.evergreensec.moe.edu.sg,11   WOODLANDS STREET 83,738489,63656392,EVERGREEN_SS@MOE.EDU.SG,WOODLANDS MRT,911,WOODLANDS,NORTH,GOVERNMENT SCHOOL,CO-ED SCHOOL,SINGLE SESSION,SECONDARY,No,No,No,No,Chinese,Malay,Tamil
FAIRFIELD METHODIST SCHOOL (PRIMARY),http://www.fmsp.moe.edu.sg/,100  DOVER ROAD,139648,67788431,fmsp@moe.edu.sg,"One-North MRT, Buona Vista MRT & Dover MRT","SBS Bus 14,33,74,166 & 196",QUEENSTOWN,SOUTH,GOVERNMENT-AIDED SCH,CO-ED SCHOOL,SINGLE SESSION,PRIMARY,No,No,No,No,Chinese,Malay,Tamil
FAIRFIELD METHODIST SCHOOL (SECONDARY),http://www.fairfieldmethodistsec.moe.edu.sg,102  DOVER ROAD,139649,67788702,FMSS@MOE.EDU.SG,"BUONA VISTA MRT, ONE-NORTH MRT","33, 74, 166, 196",QUEENSTOWN,SOUTH,GOVERNMENT-AIDED SCH,CO-ED SCHOOL,SINGLE SESSION,SECONDARY,No,Yes,No,No,Chinese,Malay,Tamil
FAJAR SECONDARY SCHOOL,http://www.fajarsec.moe.edu.sg,31   GANGSA ROAD,678972,67691491,FAJAR_SS@MOE.EDU.SG,"BUKIT PANJANG MRT, BUKIT PANJANG LRT, PETIR LRT","67, 75, 75A, 170, 171, 176, 177, 178, 180, 180A, 920, 922, 960, 961, 963, 963E, 963R, 970, 972, 972A, 973, 973A, 975, 976, 979",BUKIT PANJANG,WEST,GOVERNMENT SCHOOL,CO-ED SCHOOL,SINGLE SESSION,SECONDARY,No,No,No,No,Chinese,Malay,Tamil
FARRER PARK PRIMARY SCHOOL,http://www.farrerparkpri.moe.edu.sg,2    FARRER PARK ROAD,217567,62952272,fpps@moe.edu.sg,Farrer Park MRT Station,131,KALLANG,SOUTH,GOVERNMENT SCHOOL,CO-ED SCHOOL,SINGLE SESSION,PRIMARY,No,No,No,No,Chinese,Malay,Tamil
FENGSHAN PRIMARY SCHOOL,http://www.fengshanpri.moe.edu.sg,307  BEDOK NORTH ROAD,469680,65860123,fsps@moe.edu.sg,Bedok MRT,"18, 228, 222, 17, 69, 66, 67, 168, 28, 506, 14, 45",BEDOK,EAST,GOVERNMENT SCHOOL,CO-ED SCHOOL,SINGLE SESSION,PRIMARY,No,No,No,No,Chinese,Malay,Tamil
FERN GREEN PRIMARY SCHOOL,www.ferngreenpri.moe.edu.sg,70   Fernvale Link,797538,68343100,ferngreen_ps@moe.edu.sg,Kupang LRT Station (SW3),"85, 102",SENG KANG,EAST,GOVERNMENT SCHOOL,CO-ED SCHOOL,SINGLE SESSION,PRIMARY,No,No,No,No,Chinese,Malay,Tamil
FERNVALE PRIMARY SCHOOL,www.fernvalepri.moe.edu.sg,1    Fernvale Lane,797701,63153051,fernvale_ps@moe.edu.sg,Fernvale LRT (Sengkang West Loop),"Along Sengkang West Ave - Bus Services 50, 163; Along Yio Chu Kang Road - Bus Services 70, 86, 103 and 854.",SENG KANG,NORTH,GOVERNMENT SCHOOL,CO-ED SCHOOL,SINGLE SESSION,PRIMARY,No,No,No,No,Chinese,Malay,Tamil
FIRST TOA PAYOH PRIMARY SCHOOL,http://www.firsttoapayohpri.moe.edu.sg,7    LORONG 8 TOA PAYOH,319252,62567822,FTPPS@MOE.EDU.SG,Braddell & Toa Payoh Stations,"157,153,105,159,88,FS238",TOA PAYOH,SOUTH,GOVERNMENT SCHOOL,CO-ED SCHOOL,SINGLE SESSION,PRIMARY,No,No,No,No,Chinese,Malay,Tamil
FRONTIER PRIMARY SCHOOL,http://www.frontierpri.moe.edu.sg,20   Jurong West Street 61,648200,65789555,frontier_ps@moe.edu.sg,Pioneer MRT Station (EW28),"241, 974, 179",JURONG WEST,WEST,GOVERNMENT SCHOOL,CO-ED SCHOOL,SINGLE SESSION,PRIMARY,No,No,No,No,Chinese,Malay,Tamil
FUCHUN PRIMARY SCHOOL,http://www.fuchunpri.moe.edu.sg,23   WOODLANDS AVENUE 1,739063,63683925,FCPS@MOE.EDU.SG,Marsiling,"187,856,912,925,950,960,961,963,963E,963R,966",WOODLANDS,NORTH,GOVERNMENT SCHOOL,CO-ED SCHOOL,SINGLE SESSION,PRIMARY,No,No,No,No,Chinese,Malay,Tamil
FUCHUN SECONDARY SCHOOL,http://www.fuchunsec.moe.edu.sg,21   WOODLANDS AVENUE 1,739062,63681984,fcss@moe.edu.sg,"MARSILING MRT, WOODLANDS MRT","187, 856, 912, 913M, 925, 925M, 926, 950, 960, 960E, 961, 961M, 963, 963E, 963R, 966, 912B, 912M",WOODLANDS,NORTH,GOVERNMENT SCHOOL,CO-ED SCHOOL,SINGLE SESSION,SECONDARY,No,No,No,No,Chinese,Malay,Tamil
FUHUA PRIMARY SCHOOL,http://www.fuhuapri.moe.edu.sg,65   JURONG EAST STREET 13,609647,65624370,fhps@moe.edu.sg,JURONG EAST MRT STATION,"JURONG EAST CENTRAL (BS28441): 41,49,52,105,160,160A,160M,176,183,334,506    JURONG EAST CENTRAL (BS28431):51,66,78,79,143, 143M, 176, 335",JURONG EAST,WEST,GOVERNMENT SCHOOL,CO-ED SCHOOL,SINGLE SESSION,PRIMARY,No,No,No,No,Chinese,Malay,Tamil
FUHUA SECONDARY SCHOOL,http://www.fuhuasec.moe.edu.sg,5    JURONG WEST STREET 41,649410,65633067,FHSS@MOE.EDU.SG,"CHINESE GARDEN MRT, LAKESIDE MRT","49, 98, 99, 157, 180, 185, 187, 198, 334, 335, 502, 657",JURONG WEST,WEST,GOVERNMENT SCHOOL,CO-ED SCHOOL,SINGLE SESSION,SECONDARY,No,No,No,No,Chinese,Malay,Tamil
GAN ENG SENG PRIMARY SCHOOL,http://www.ganengsengpri.moe.edu.sg,100  REDHILL CLOSE,158901,64717451,gesps@moe.edu.sg,Redhill,"14, 63, 147, 196, 197, 855, 961",BUKIT MERAH,SOUTH,GOVERNMENT SCHOOL,CO-ED SCHOOL,SINGLE SESSION,PRIMARY,No,No,No,No,Chinese,Malay,Tamil
GAN ENG SENG SCHOOL,http://www.ganengsengsch.moe.edu.sg,1    HENDERSON ROAD,159561,64745594,GESS@MOE.EDU.SG,"REDHILL MRT, TIONG BAHRU MRT","14, 16, 32, 33, 51, 63, 64, 120, 122, 145, 139, 186, 851, 970",BUKIT MERAH,SOUTH,GOVERNMENT SCHOOL,CO-ED SCHOOL,SINGLE SESSION,SECONDARY,No,No,No,No,Chinese,Malay,Tamil
GEYLANG METHODIST SCHOOL (PRIMARY),www.geylangmethodistpri.moe.edu.sg,4    Geylang East Central,389706,67486746,GMSP@moe.edu.sg,Aljunied,"80, 134, 155",GEYLANG,EAST,GOVERNMENT-AIDED SCH,CO-ED SCHOOL,SINGLE SESSION,PRIMARY,No,No,No,No,Chinese,Malay,Tamil
GEYLANG METHODIST SCHOOL (SECONDARY),http://www.geylangmethodistsec.moe.edu.sg,2    GEYLANG EAST CENTRAL,389705,67466503,gmss@moe.edu.sg,ALJUNIED MRT,"40, 62, 63, 80, 100, 125, 134, 155, 158",GEYLANG,EAST,GOVERNMENT-AIDED SCH,CO-ED SCHOOL,SINGLE SESSION,SECONDARY,No,No,No,No,Chinese,Malay,Tamil
GONGSHANG PRIMARY SCHOOL,http://www.gongshangpri.moe.edu.sg,1    TAMPINES STREET 42,529176,67831191,GSPS@MOE.EDU.SG,Tampines (Downtown Line and East West Line) and Tampines East (Downtown Line),"4, 8, 18, 19, 21, 37, 38, 81, 293",TAMPINES,EAST,GOVERNMENT SCHOOL,CO-ED SCHOOL,SINGLE SESSION,PRIMARY,No,No,No,No,Chinese,Malay,na
GREENDALE PRIMARY SCHOOL,http://www.greendalepri.moe.edu.sg,50   Edgedale Plains,828848,68861413,greendale_ps@moe.edu.sg,Punggol LRT:  Coral Edge,"3,62, 83, 85, 386",PUNGGOL,NORTH,GOVERNMENT SCHOOL,CO-ED SCHOOL,SINGLE SESSION,PRIMARY,No,No,No,No,Chinese,Malay,Tamil
GREENDALE SECONDARY SCHOOL,http://www.greendalesec.moe.edu.sg,51   EDGEDALE PLAINS,828866,63158616,greendale_ss@moe.edu.sg,"PUNGGOL MRT, MERIDIAN LRT","3, 62, 83, 85, 136, 386",PUNGGOL,NORTH,GOVERNMENT SCHOOL,CO-ED SCHOOL,SINGLE SESSION,SECONDARY,No,No,No,No,Chinese,Malay,Tamil
GREENRIDGE PRIMARY SCHOOL,http://www.greenridgepri.moe.edu.sg,11   JELAPANG ROAD,677744,67604265,GRPS@MOE.EDU.SG,"Senja LRT station, Jelapang LRT Station","Bus 920, 922, 972",BUKIT PANJANG,WEST,GOVERNMENT SCHOOL,CO-ED SCHOOL,SINGLE SESSION,PRIMARY,No,No,No,No,Chinese,Malay,Tamil
GREENRIDGE SECONDARY SCHOOL,http://www.greenridgesec.moe.edu.sg,32   BUKIT PANJANG RING ROAD,679938,67601052,gss@moe.edu.sg,BANGKIT LRT,"722, 920, 922, 971, 972, 972M, 976",BUKIT PANJANG,WEST,GOVERNMENT SCHOOL,CO-ED SCHOOL,SINGLE SESSION,SECONDARY,No,No,No,No,Chinese,Malay,Tamil
GREENWOOD PRIMARY SCHOOL,http://www.greenwoodpri.moe.edu.sg,11   WOODLANDS  DR  62,737942,63666158,greenwood_ps@moe.edu.sg,Admiralty MRT Station,"912, 913, 962",WOODLANDS,NORTH,GOVERNMENT SCHOOL,CO-ED SCHOOL,SINGLE SESSION,PRIMARY,No,No,No,No,Chinese,Malay,Tamil
GUANGYANG PRIMARY SCHOOL,http://www.guangyangpri.moe.edu.sg,6    Bishan Street 12,579806,62580455,GYPS@MOE.EDU.SG,Bishan MRT,"13,52,54,55,56,57,59,88,93,156,157,163,410",BISHAN,SOUTH,GOVERNMENT SCHOOL,CO-ED SCHOOL,SINGLE SESSION,PRIMARY,No,No,No,No,Chinese,Malay,Tamil
GUANGYANG SECONDARY SCHOOL,http://guangyangsec.moe.edu.sg,8    BISHAN STREET 12,579807,62589781,gyss@moe.edu.sg,BISHAN MRT,"13, 56, 57, 59, 71, 88, 93, 157, 163, 410",BISHAN,SOUTH,GOVERNMENT SCHOOL,CO-ED SCHOOL,SINGLE SESSION,SECONDARY,No,No,No,No,Chinese,Malay,Tamil
HAI SING CATHOLIC SCHOOL,http://www.haisingcatholic.moe.edu.sg,9    PASIR RIS DRIVE 6,519421,65827864,HSHS@MOE.EDU.SG,PASIR RIS MRT,"3, 5, 6, 12, 17, 21, 89, 354, 358",PASIR RIS,EAST,GOVERNMENT-AIDED SCH,CO-ED SCHOOL,SINGLE SESSION,SECONDARY,No,No,No,No,Chinese,Malay,Tamil
HAIG GIRLS' SCHOOL,http://www.haiggirls.moe.edu.sg,51   Koon Seng Road,427072,63440293,HAIGGIRLSSCH@MOE.EDU.SG,"Eunos, Dakota","16,33",GEYLANG,EAST,GOVERNMENT SCHOOL,GIRLS' SCHOOL,SINGLE SESSION,PRIMARY,No,No,No,No,Chinese,Malay,Tamil
HENRY PARK PRIMARY SCHOOL,http://www.henryparkpri.moe.edu.sg,1    HOLLAND GROVE ROAD,278790,64663600,HPPS@MOE.EDU.SG,"Buona Vista MRT, Clementi MRT","7, 61, 75, 156, 157, 165, 92",BUKIT TIMAH,WEST,GOVERNMENT SCHOOL,CO-ED SCHOOL,SINGLE SESSION,PRIMARY,No,No,Yes,No,Chinese,Malay,Tamil
HILLGROVE SECONDARY SCHOOL,http://www.hillgrovesec.moe.edu.sg,10   BUKIT BATOK STREET 52,659250,65603726,HILLGROVE_SS@MOE.EDU.SG,"BUKIT BATOK MRT, BUKIT GOMBAK MRT","176, 985, 945",BUKIT BATOK,WEST,GOVERNMENT SCHOOL,CO-ED SCHOOL,SINGLE SESSION,SECONDARY,No,No,No,No,Chinese,Malay,Tamil
HOLY INNOCENTS' HIGH SCHOOL,http://www.holyinnocentshigh.moe.edu.sg,1191 UPPER SERANGOON ROAD,534786,62833381,HIHS@MOE.EDU.SG,HOUGANG MRT,"27, 72, 74, 80, 87, 89, 101, 107, 113, 116, 119, 132, 136, 147, 153, 161, 165, 324, 325",HOUGANG,SOUTH,GOVERNMENT-AIDED SCH,CO-ED SCHOOL,SINGLE SESSION,SECONDARY,No,No,No,No,Chinese,Malay,Tamil
HOLY INNOCENTS' PRIMARY SCHOOL,http://www.holyinnocentspri.moe.edu.sg/,5    Lorong Low Koon,536451,62886516,HOLYINNOCENTSPRI@MOE.EDU.SG,2km walk to Hougang MRT,"51,72,80,101,119,132,136,153.",HOUGANG,SOUTH,GOVERNMENT-AIDED SCH,CO-ED SCHOOL,SINGLE SESSION,PRIMARY,Yes,No,No,No,Chinese,na,na
HONG WEN SCHOOL,http://www.hongwen.moe.edu.sg,30   TOWNER ROAD,327829,62943340,hws@moe.edu.sg,Boon Keng MRT,"Serangoon Road: 13, 23, 31, 64, 65, 66, 125, 133, 147, 857, 985 Balestier Road: 21, 125, 130, 139, 145",KALLANG,SOUTH,GOVERNMENT-AIDED SCH,CO-ED SCHOOL,SINGLE SESSION,PRIMARY,Yes,No,No,No,Chinese,na,na
HORIZON PRIMARY SCHOOL,http://www.horizonpri.moe.edu.sg,61   Edgedale Plains,828819,67535411,horizon_ps@moe.edu.sg,Punggol MRT Station (NE17)  (LRT: Kadaloor [PE5] or Oasis [PE6]),"3, 50, 83, 85, 569",PUNGGOL,NORTH,GOVERNMENT SCHOOL,CO-ED SCHOOL,SINGLE SESSION,PRIMARY,No,No,No,No,Chinese,Malay,Tamil
HOUGANG PRIMARY SCHOOL,http://www.hougangpri.moe.edu.sg/,1    HOUGANG ST 93,534238,64897445,HOUGANG_PS@MOE.EDU.SG,"Ang Mo Kio, Buangkok, Hougang, Sengkang, Yio Chu Kang","SBS 43, 72, 88, 101, 109, 116, 156, 159, 325, 329",HOUGANG,NORTH,GOVERNMENT SCHOOL,CO-ED SCHOOL,SINGLE SESSION,PRIMARY,No,No,No,No,Chinese,Malay,Tamil
HOUGANG SECONDARY SCHOOL,http://www.hougangsec.moe.edu.sg,2    HOUGANG STREET 93,534256,63851990,HOUGANG_SS@MOE.EDU.SG,"HOUGANG MRT, BUANGKOK MRT","43, 88, 101, 109, 156, 159, 161, 325, 329",HOUGANG,NORTH,GOVERNMENT SCHOOL,CO-ED SCHOOL,SINGLE SESSION,SECONDARY,No,No,No,No,Chinese,Malay,Tamil
HUA YI SECONDARY SCHOOL,http://www.huayisec.moe.edu.sg,60   JURONG WEST ST 42,649371,65634568,HYSS@MOE.EDU.SG,"LAKESIDE MRT, CHINESE GARDEN MRT","49, 98, 98B, 98M, 99, 157, 185, 187, 198, 198A, 334, 335, 502",JURONG WEST,WEST,GOVERNMENT SCHOOL,CO-ED SCHOOL,SINGLE SESSION,SECONDARY,No,No,No,No,Chinese,Malay,Tamil
HUAMIN PRIMARY SCHOOL,http://www.huaminpri.moe.edu.sg,21   YISHUN AVENUE 11,768857,67529004,huamin_ps@moe.edu.sg,Yishun MRT Station,"806, 804",YISHUN,NORTH,GOVERNMENT SCHOOL,CO-ED SCHOOL,SINGLE SESSION,PRIMARY,No,No,No,No,Chinese,Malay,Tamil
HWA CHONG INSTITUTION,http://www.hwachong.edu.sg,661  BUKIT TIMAH ROAD,269734,64683955,admin@hci.edu.sg,TAN KAH KEE MRT,"66, 67, 74, 151, 154, 156, 157, 170, 170A, 174, 852, 961, 961M",BUKIT TIMAH,WEST,INDEPENDENT SCHOOL,CO-ED SCHOOL,SINGLE SESSION,MIXED LEVELS,Yes,No,No,Yes,Chinese,na,na
INNOVA PRIMARY SCHOOL,http://www.innovapri.moe.edu.sg/,80   Woodlands Drive 17,737888,68944693,innova_pri@moe.edu.sg,Woodlands,"900A (weekdays only - 7.00 am to 8.30 am & 4.30 pm to 6.30 pm), 901",WOODLANDS,NORTH,GOVERNMENT SCHOOL,CO-ED SCHOOL,SINGLE SESSION,PRIMARY,No,No,No,No,Chinese,Malay,Tamil
JIEMIN PRIMARY SCHOOL,http://www.jieminpri.moe.edu.sg,2    YISHUN STREET 71,768515,67586472,jiemin_ps@moe.edu.sg,Yishun MRT Station,"167,169,171,800,811,000,000,000,000,000,000",YISHUN,NORTH,GOVERNMENT SCHOOL,CO-ED SCHOOL,SINGLE SESSION,PRIMARY,No,No,No,No,Chinese,Malay,Tamil
JING SHAN PRIMARY SCHOOL,http://www.jingshanpri.moe.edu.sg,5    ANG MO KIO ST 52,569228,64566305,jsps@moe.edu.sg,Ang Mo Kio MRT,Bus 265,ANG MO KIO,SOUTH,GOVERNMENT SCHOOL,CO-ED SCHOOL,SINGLE SESSION,PRIMARY,No,No,No,No,Chinese,Malay,Tamil
JUNYUAN PRIMARY SCHOOL,https://junyuanpri.moe.edu.sg,2    Tampines Street 91,528906,67830375,JUNYUAN_PS@MOE.EDU.SG,Tampines West (Downtown Line); Tampines (East-West Line),"76281: 22, 46, 129 76061: 10, 15, 20, 21, 23, 27, 31, 34, 39, 65, 67, 168, 292 75051: 5, 8, 18, 28, 59, 118",TAMPINES,EAST,GOVERNMENT SCHOOL,CO-ED SCHOOL,SINGLE SESSION,PRIMARY,No,No,No,No,Chinese,Malay,Tamil
JUNYUAN SECONDARY SCHOOL,http://www.junyuansec.moe.edu.sg,11   TAMPINES STREET 84,528933,65873683,JUNYUAN_SS@MOE.EDU.SG,"TAMPINES MRT, TAMPINES WEST MRT","69, 291, 293",TAMPINES,EAST,GOVERNMENT SCHOOL,CO-ED SCHOOL,SINGLE SESSION,SECONDARY,No,No,No,No,Chinese,Malay,Tamil
JURONG PIONEER JUNIOR COLLEGE,http://jpjc.moe.edu.sg,21   Teck Whye Walk,688258,+65 6564 6878,jpjc@moe.edu.sg,Choa Chu Kang / Bt Panjang / Phoenix Station (LRT),"975, 190, 985",CHOA CHU KANG,WEST,GOVERNMENT SCHOOL,CO-ED SCHOOL,FULL DAY,JUNIOR COLLEGE,No,No,No,No,Chinese,Malay,Tamil
JURONG PRIMARY SCHOOL,http://www.jurongpri.moe.edu.sg,320  JURONG EAST Street 32,609476,65618837,JPS@MOE.EDU.SG,"Lakeside MRT Station, Jurong East MRT Station",333,JURONG EAST,WEST,GOVERNMENT SCHOOL,CO-ED SCHOOL,SINGLE SESSION,PRIMARY,No,No,No,No,Chinese,Malay,Tamil
JURONG SECONDARY SCHOOL,http://www.jurongsec.moe.edu.sg,31   YUAN CHING ROAD,618652,62655980,JURONG_SS@MOE.EDU.SG,LAKESIDE MRT,"30, 49, 98, 98A, 154, 240, 246",JURONG WEST,WEST,GOVERNMENT SCHOOL,CO-ED SCHOOL,SINGLE SESSION,SECONDARY,No,No,No,No,Chinese,Malay,Tamil
JURONG WEST PRIMARY SCHOOL,http://www.jurongwestpri.moe.edu.sg,30   JURONG WEST ST 61,648368,67933419,JWPS@MOE.EDU.SG,Pioneer MRT Station,192,JURONG WEST,WEST,GOVERNMENT SCHOOL,CO-ED SCHOOL,SINGLE SESSION,PRIMARY,No,No,No,No,Chinese,Malay,Tamil
JURONG WEST SECONDARY SCHOOL,http://www.jurongwestsec.moe.edu.sg,61   JURONG WEST STREET 65,648348,62623593,JWSS@MOE.EDU.SG,"BOON LAY MRT, PIONEER MRT","30, 154, 157, 180, 187, 198, 242",JURONG WEST,WEST,GOVERNMENT SCHOOL,CO-ED SCHOOL,SINGLE SESSION,SECONDARY,No,No,No,No,Chinese,Malay,Tamil
JURONGVILLE SECONDARY SCHOOL,http://www.jurongvillesec.moe.edu.sg,202  JURONG EAST AVENUE 1,609790,65638704,JURONGVILLE@MOE.EDU.SG,"JURONG EAST MRT, CHINESE GARDEN MRT","98, 98M, 99, 157, 185, 187, 198, 334, 502",JURONG EAST,WEST,GOVERNMENT SCHOOL,CO-ED SCHOOL,SINGLE SESSION,SECONDARY,No,No,No,No,Chinese,Malay,Tamil
JUYING PRIMARY SCHOOL,http://www.juyingpri.moe.edu.sg/,31   JURONG WEST STREET 91,649037,67932039,JUYING_PS@MOE.EDU.SG,Boon Lay MRT Station (Jurong Point),SBS 99 (From Clementi Inter-change) SBS 241 (From Boon Lay Inter-change),JURONG WEST,WEST,GOVERNMENT SCHOOL,CO-ED SCHOOL,SINGLE SESSION,PRIMARY,No,No,No,No,Chinese,Malay,Tamil
JUYING SECONDARY SCHOOL,http://juyingsec.moe.edu.sg,33   JURONG WEST STREET 91,649038,63089898,JUYING_SS@MOE.EDU.SG,"BOON LAY MRT, PIONEER MRT, JOO KOON MRT","99, 241",JURONG WEST,WEST,GOVERNMENT SCHOOL,CO-ED SCHOOL,SINGLE SESSION,SECONDARY,No,No,No,No,Chinese,Malay,Tamil
KEMING PRIMARY SCHOOL,http://www.kemingpri.moe.edu.sg,90   BUKIT BATOK EAST AVENUE 6,659762,68962054,KMPS@MOE.EDU.SG,Bukit Batok,"61,66,77,106,157,174,178,963",BUKIT BATOK,WEST,GOVERNMENT SCHOOL,CO-ED SCHOOL,SINGLE SESSION,PRIMARY,No,No,No,No,Chinese,Malay,Tamil
KENT RIDGE SECONDARY SCHOOL,http://www.kentridgesec.moe.edu.sg,147  WEST COAST ROAD,127368,67731127,KRSS@MOE.EDU.SG,"CLEMENTI MRT, HAW PAR VILLA MRT","30, 51, 143, 175, 176, 201, 282",CLEMENTI,SOUTH,GOVERNMENT SCHOOL,CO-ED SCHOOL,SINGLE SESSION,SECONDARY,No,No,No,No,Chinese,Malay,na
KHENG CHENG SCHOOL,http://www.khengcheng.moe.edu.sg/,15   LORONG 3 TOA PAYOH,319580,62552502,kcs@moe.edu.sg,Braddell,"SBS 235,56,73,88,157,159,163,231,",TOA PAYOH,SOUTH,GOVERNMENT-AIDED SCH,CO-ED SCHOOL,SINGLE SESSION,PRIMARY,No,No,No,No,Chinese,Malay,na
KONG HWA SCHOOL,http://www.konghwa.moe.edu.sg,350  GUILLEMARD ROAD,399772,63421195,KONGHWA_SCH@MOE.EDU.SG,Dakota,"Service 7,70,70M,197(to Guillemard Road)",GEYLANG,EAST,GOVERNMENT-AIDED SCH,CO-ED SCHOOL,SINGLE SESSION,PRIMARY,Yes,No,No,No,Chinese,na,na
KRANJI PRIMARY SCHOOL,http://kranjipri.moe.edu.sg,11   CHOA CHU KANG STREET 54,689189,67634812,kranji_ps@moe.edu.sg,Yew Tee MRT,"Bus No 307, 302",CHOA CHU KANG,WEST,GOVERNMENT SCHOOL,CO-ED SCHOOL,SINGLE SESSION,PRIMARY,No,No,No,No,Chinese,Malay,Tamil
KRANJI SECONDARY SCHOOL,http://www.kranjisec.moe.edu.sg,61   CHOA CHU KANG STREET 51,689333,67662464,kranji_ss@moe.edu.sg,"CHUA CHU KANG MRT, YEW TEE MRT",302,CHOA CHU KANG,WEST,GOVERNMENT SCHOOL,CO-ED SCHOOL,SINGLE SESSION,SECONDARY,No,No,No,No,Chinese,Malay,Tamil
KUO CHUAN PRESBYTERIAN PRIMARY SCHOOL,http://www.kuochuanpresbyterianpri.moe.edu.sg,8    BISHAN STREET 13,579793,62595396,KCPPS@MOE.EDU.SG,Bishan MRT Station,"54, 56, 410, 410G",BISHAN,SOUTH,GOVERNMENT-AIDED SCH,CO-ED SCHOOL,SINGLE SESSION,PRIMARY,No,No,No,No,Chinese,Malay,Tamil
KUO CHUAN PRESBYTERIAN SECONDARY SCHOOL,http://www.kuochuanpresbyteriansec.moe.edu.sg,10   BISHAN STREET 13,579795,62593811,kcpss@moe.edu.sg,BISHAN MRT,"54, 56, 410G, 410W",BISHAN,SOUTH,GOVERNMENT-AIDED SCH,CO-ED SCHOOL,SINGLE SESSION,SECONDARY,No,No,No,No,Chinese,Malay,Tamil
LAKESIDE PRIMARY SCHOOL,http://www.lakesidepri.moe.edu.sg/,161  Corporation Walk,618310,62620918,lakeside_ps@moe.edu.sg,Lakeside MRT,"30, 49, 98, 98M",JURONG WEST,WEST,GOVERNMENT SCHOOL,CO-ED SCHOOL,SINGLE SESSION,PRIMARY,No,No,No,No,Chinese,Malay,Tamil
LIANHUA PRIMARY SCHOOL,http://www.lianhuapri.moe.edu.sg/,2    BUKIT BATOK STREET 52,659243,65639502,lianhua_ps@moe.edu.sg,Bukit Gombak/Bukit Batok,945,BUKIT BATOK,WEST,GOVERNMENT SCHOOL,CO-ED SCHOOL,SINGLE SESSION,PRIMARY,No,No,No,No,Chinese,Malay,Tamil
LOYANG VIEW SECONDARY SCHOOL,http://www.loyangviewsec.moe.edu.sg,12   PASIR RIS STREET 11,519073,65821727,loyangview_ss@moe.edu.sg,PASIR RIS MRT,"12, 21, 39, 53, 81, 109, 359, 518",PASIR RIS,EAST,GOVERNMENT SCHOOL,CO-ED SCHOOL,SINGLE SESSION,SECONDARY,No,No,No,No,Chinese,Malay,Tamil
MAHA BODHI SCHOOL,http://www.mahabodhi.moe.edu.sg/,10   UBI AVENUE 1,408931,67442115,MBS@MOE.EDU.SG,"Eunos Station (Transfer Bus No.63, 63M) Ubi Station (Transfer Bus No. 137)","5,8,15,22,25,45,51,55,59,61,63,63M,65,66,93,94,854",GEYLANG,EAST,GOVERNMENT-AIDED SCH,CO-ED SCHOOL,SINGLE SESSION,PRIMARY,Yes,No,No,No,Chinese,na,na
MANJUSRI SECONDARY SCHOOL,http://www.manjusrisec.moe.edu.sg,20   UBI AVENUE 1,408940,68424558,manjusri_ss@moe.edu.sg,"UBI MRT, MACPHERSON MRT","5, 8, 15, 22, 25, 45, 51, 55, 59, 61, 63, 63M, 65, 66, 93, 94, 137, 854",GEYLANG,EAST,GOVERNMENT-AIDED SCH,CO-ED SCHOOL,SINGLE SESSION,SECONDARY,No,No,No,No,Chinese,Malay,na
MARIS STELLA HIGH SCHOOL,http://www.marisstellahigh.moe.edu.sg,25   MOUNT VERNON ROAD,368051,62803880 (Sec),msh@moe.edu.sg,BARTLEY MRT,"28, 93, 129, 158",TOA PAYOH,NORTH,GOVERNMENT-AIDED SCH,BOYS' SCHOOL,SINGLE SESSION,MIXED LEVELS,Yes,Yes,No,No,Chinese,na,na
MARSILING PRIMARY SCHOOL,http://www.marsilingpri.moe.edu.sg,31   WOODLANDS CENTRE ROAD,738927,62696193,MARSILING_PS@MOE.EDU.SG,Marsiling MRT Station,"856, 911, 912",WOODLANDS,NORTH,GOVERNMENT SCHOOL,CO-ED SCHOOL,SINGLE SESSION,PRIMARY,No,No,No,No,Chinese,Malay,Tamil
MARSILING SECONDARY SCHOOL,http://www.marsilingsec.moe.edu.sg,12   MARSILING ROAD,739110,68941413,MARSILING_SS@MOE.EDU.SG,MARSILING MRT,"913, 911",WOODLANDS,NORTH,GOVERNMENT SCHOOL,CO-ED SCHOOL,SINGLE SESSION,SECONDARY,No,No,No,No,Chinese,Malay,Tamil
MARYMOUNT CONVENT SCHOOL,HTTP://WWW.MARYMOUNTCONVENT.MOE.EDU.SG,20   Marymount Road,297754,6256 6701,enquire@marymount.edu.sg,Braddell MRT Station or  Caldecott MRT Station,"141, 235",TOA PAYOH,SOUTH,GOVERNMENT-AIDED SCH,GIRLS' SCHOOL,SINGLE SESSION,PRIMARY,No,No,No,No,Chinese,Malay,Tamil
MAYFLOWER PRIMARY SCHOOL,http://www.mayflowerpri.moe.edu.sg,6    Ang Mo Kio Avenue 2,569948,64520849,MAYFLOWER_PS@MOE.EDU.SG,Yio Chu Kang MRT Station.,"13,86,138,162,269,851,852,853.",ANG MO KIO,SOUTH,GOVERNMENT SCHOOL,CO-ED SCHOOL,SINGLE SESSION,PRIMARY,No,No,No,No,Chinese,Malay,Tamil
MAYFLOWER SECONDARY SCHOOL,http://www.mayflowersec.moe.edu.sg,2    ANG MO KIO STREET 21,569384,64577783,MAYFLOWER_SS@MOE.EDU.SG,"ANG MO KIO MRT, MAYFLOWER MRT (Targeted to open in 2020)","71, 76, 132, 165, 166, 169, 262, 265, 268, 269",ANG MO KIO,SOUTH,GOVERNMENT SCHOOL,CO-ED SCHOOL,SINGLE SESSION,SECONDARY,No,No,No,No,Chinese,Malay,Tamil
MEE TOH SCHOOL,http://www.meetoh.moe.edu.sg/,21   EDGEDALE PLAINS,828867,64893326,MEETOH_SCH@MOE.EDU.SG,Punggol Station,"3,62,83",PUNGGOL,NORTH,GOVERNMENT-AIDED SCH,CO-ED SCHOOL,SINGLE SESSION,PRIMARY,No,No,No,No,Chinese,Malay,na
MERIDIAN PRIMARY SCHOOL,http://www.meridianpri.moe.edu.sg/,20   PASIR RIS ST 71,518798,65832125,MERIDIAN_PS@MOE.EDU.SG,Pasir Ris MRT Station,"3,359",PASIR RIS,EAST,GOVERNMENT SCHOOL,CO-ED SCHOOL,SINGLE SESSION,PRIMARY,No,No,No,No,Chinese,Malay,Tamil
MERIDIAN SECONDARY SCHOOL,http://www.meridiansec.moe.edu.sg,31   PASIR RIS STREET 51,518901,65831387,meridian_sec@moe.edu.sg,PASIR RIS MRT,"39, 53, 81, 89, 109, 359, 403, 518",PASIR RIS,EAST,GOVERNMENT SCHOOL,CO-ED SCHOOL,SINGLE SESSION,SECONDARY,No,No,No,No,Chinese,Malay,Tamil
METHODIST GIRLS' SCHOOL (PRIMARY),http://www.mgs.sch.edu.sg,11   Blackmore Drive,599986,64694800,mgps@moe.edu.sg,King Albert Park MRT,"66, 67, 74, 77, 151, 154, 157, 170, 171, 174, 852, 961, 970",BUKIT TIMAH,WEST,GOVERNMENT-AIDED SCH,GIRLS' SCHOOL,SINGLE SESSION,PRIMARY,No,No,No,No,Chinese,Malay,Tamil
METHODIST GIRLS' SCHOOL (SECONDARY),http://www.mgs.moe.edu.sg,11   BLACKMORE DRIVE,599986,64694800,MGSS@MOE.EDU.SG,KING ALBERT PARK MRT,"66, 67, 74, 77, 151, 154, 157, 170, 174, 852, 961, 970",BUKIT TIMAH,WEST,INDEPENDENT SCHOOL,GIRLS' SCHOOL,SINGLE SESSION,SECONDARY,No,No,No,Yes,Chinese,Malay,Tamil
MILLENNIA INSTITUTE,http://www.millenniainstitute.moe.edu.sg,60   Bukit Batok West Avenue 8,658965,63023700,millennia_inst@moe.edu.sg,Bukit Batok (NS 2),"157, 174, 174e, 178, 506, 991, 941, 160M",BUKIT BATOK,WEST,GOVERNMENT SCHOOL,CO-ED SCHOOL,FULL DAY,CENTRALISED INSTITUTE,No,No,No,No,Chinese,Malay,Tamil
MONTFORT JUNIOR SCHOOL,http://www.montfortjunior.moe.edu.sg/,52   HOUGANG AVENUE 8,538786,65101588,MONTFORT_JS@MOE.EDU.SG,Hougang MRT & Bus Interchange,"74,88,101,147,161,",HOUGANG,NORTH,GOVERNMENT-AIDED SCH,BOYS' SCHOOL,SINGLE SESSION,PRIMARY,No,No,No,No,Chinese,Malay,Tamil
MONTFORT SECONDARY SCHOOL,https://montfortsec.moe.edu.sg/,50   HOUGANG AVENUE 8,538785,65107070,contact@montfortsec.edu.sg,HOUGANG MRT,"74, 74e, 88, 88A, 101, 147, 147A, 161",HOUGANG,NORTH,GOVERNMENT-AIDED SCH,BOYS' SCHOOL,SINGLE SESSION,SECONDARY,No,No,No,No,Chinese,Malay,Tamil
NAN CHIAU HIGH SCHOOL,http://www.nchs.edu.sg,20   ANCHORVALE LINK,545079,64897971,nchs@moe.edu.sg,"SENGKANG MRT, RENJONG LRT, TONGKANG LRT","43, 83, 85, 109, 156, 159, 161, 163, 372",SENG KANG,NORTH,GOVERNMENT-AIDED SCH,CO-ED SCHOOL,SINGLE SESSION,SECONDARY,Yes,No,No,No,Chinese,na,na
NAN CHIAU PRIMARY SCHOOL,http://www.ncps.moe.edu.sg,50   ANCHORVALE LINK,545080,64897905,NCPS@MOE.EDU.SG,Sengkang Station,"156, 159, 161, 371, 372",SENG KANG,NORTH,GOVERNMENT-AIDED SCH,CO-ED SCHOOL,SINGLE SESSION,PRIMARY,No,No,No,No,Chinese,Malay,Tamil
NAN HUA HIGH SCHOOL,http://www.nanhuahigh.moe.edu.sg,41   CLEMENTI AVENUE 1,129956,67788303,nhhs@moe.edu.sg,CLEMENTI MRT,"14, 33, 52, 78, 96, 97, 105, 106, 147, 151, 154, 165, 166, 183, 185, 188, 189, 196, 197, 198, 282, 285, 963",CLEMENTI,WEST,GOVERNMENT SCHOOL,CO-ED SCHOOL,SINGLE SESSION,SECONDARY,Yes,Yes,No,No,Chinese,na,na
NAN HUA PRIMARY SCHOOL,http://www.nanhuapri.moe.edu.sg,30   Jalan Lempeng,128806,67788050,nhps@moe.edu.sg,Clementi MRT Station,"30, 51, 143, 175, 201, 533, 655, 727, 762",CLEMENTI,WEST,GOVERNMENT-AIDED SCH,CO-ED SCHOOL,DOUBLE SESSION,PRIMARY,Yes,No,Yes,No,Chinese,na,na
NANYANG GIRLS' HIGH SCHOOL,https://www.nygh.edu.sg,2    LINDEN DRIVE,288683,64663275,nanyanggirls@nygh.edu.sg,"SIXTH AVENUE MRT, TAN KAH KEE MRT","66, 67, 74, 151, 154, 156, 157, 170, 174, 852, 961",BUKIT TIMAH,WEST,INDEPENDENT SCHOOL,GIRLS' SCHOOL,SINGLE SESSION,SECONDARY,Yes,No,Yes,Yes,Chinese,na,na
NANYANG JUNIOR COLLEGE,http://www.nanyangjc.moe.edu.sg/,128  SERANGOON AVENUE 3,556111,62842281,nyjc@moe.edu.sg,2-minute walk from the Lorong Chuan MRT Station (Circle Line),"22, 24, 53, 73, 133, 105, 135, 136, 156, 853",SERANGOON,SOUTH,GOVERNMENT-AIDED SCH,CO-ED SCHOOL,FULL DAY,JUNIOR COLLEGE,No,No,No,No,na,na,na
NANYANG PRIMARY SCHOOL,http://www.nyps.moe.edu.sg,52   KING'S ROAD,268097,64672677,NYPS@MOE.EDU.SG,Farrer Rd MRT Station,"66, 67, 74, 93, 151, 153, 154, 156, 157, 165, 170, 171, 174, 186, 852, 855, 961",BUKIT TIMAH,WEST,GOVERNMENT-AIDED SCH,CO-ED SCHOOL,SINGLE SESSION,PRIMARY,Yes,No,Yes,No,Chinese,na,na
NATIONAL JUNIOR COLLEGE,http://www.nationaljc.moe.edu.sg,37   HILLCREST ROAD,288913,64661144,NJC@MOE.EDU.SG,"BOTANIC GARDENS MRT, TAN KAH KEE MRT, SIXTH AVENUE MRT","66, 67, 74, 151, 154, 156, 157, 170, 174, 852, 961, 972",BUKIT TIMAH,SOUTH,GOVERNMENT SCHOOL,CO-ED SCHOOL,FULL DAY,MIXED LEVELS,No,No,No,Yes,Chinese,Malay,Tamil
NAVAL BASE PRIMARY SCHOOL,http://www.navalbasepri.moe.edu.sg/,7    YISHUN AVE 4,769028,67537114,NBPS@MOE.EDU.SG,Yishun MRT Station,Feeder bus No. 811 from Yishun Interchange.,YISHUN,NORTH,GOVERNMENT SCHOOL,CO-ED SCHOOL,SINGLE SESSION,PRIMARY,No,No,No,No,Chinese,Malay,Tamil
NAVAL BASE SECONDARY SCHOOL,http://www.navalbasesec.moe.edu.sg,901  YISHUN RING ROAD,768689,62571996,NBSS@MOE.EDU.SG,KHATIB MRT,"39, 85, 117, 670, 807, 811, 812, 851, 852, 853, 854, 855, 857, 858, 965, 969",YISHUN,NORTH,GOVERNMENT SCHOOL,CO-ED SCHOOL,SINGLE SESSION,SECONDARY,No,No,No,No,Chinese,Malay,Tamil
NEW TOWN PRIMARY SCHOOL,http://www.newtownpri.moe.edu.sg/,300  Tanglin Halt Road,148812,64748805,NTPS@MOE.EDU.SG,Commonwealth MRT Station,"SBS Numbers 32, 100, 105, 111, 145, 147, 195, 196, 198, 855",QUEENSTOWN,SOUTH,GOVERNMENT SCHOOL,CO-ED SCHOOL,SINGLE SESSION,PRIMARY,No,No,No,No,Chinese,Malay,Tamil
NEW TOWN SECONDARY SCHOOL,http://www.newtownsec.moe.edu.sg,1020 DOVER ROAD,139657,67754140,ntss@moe.edu.sg,"DOVER MRT, CLEMENTI MRT","33, 96, 96A, 151, 196, 183",QUEENSTOWN,WEST,GOVERNMENT SCHOOL,CO-ED SCHOOL,SINGLE SESSION,SECONDARY,No,No,No,No,Chinese,Malay,Tamil
NGEE ANN PRIMARY SCHOOL,http://www.ngeeannpri.moe.edu.sg,344  MARINE TERRACE,449149,64418677,NAPS@MOE.EDU.SG,Nil,"13, 16, 16M, 31,36, 43, 47, 48, 55, 135, 196, 196E, 197, 853M (at Marine Parade road) 13, 16, 16M, 196 and 196E(at Marine Terrace)",MARINE PARADE,EAST,GOVERNMENT-AIDED SCH,CO-ED SCHOOL,SINGLE SESSION,PRIMARY,No,No,No,No,Chinese,Malay,Tamil
NGEE ANN SECONDARY SCHOOL,http://www.ngeeannsec.moe.edu.sg,1    TAMPINES STREET 32,529283,67844583,nass@moe.edu.sg,"TAMPINES MRT, SIMEI MRT, TAMPINES EAST MRT","3, 4, 8, 9, 12, 17, 18, 19, 21, 28, 29, 34, 37, 38, 39, 59, 81, 291, 293, 518, 552",TAMPINES,EAST,GOVERNMENT-AIDED SCH,CO-ED SCHOOL,SINGLE SESSION,SECONDARY,No,Yes,No,No,Chinese,Malay,Tamil
NORTH SPRING PRIMARY SCHOOL,http://www.northspringpri.moe.edu.sg,1    RIVERVALE STREET,545088,68816887,nsps@moe.edu.sg,NEL - Sengkang Station LRT - Bakau Station,"SBS Transit Services 82, 85, 86, 88, 119, 136, 163, 372",SENG KANG,NORTH,GOVERNMENT SCHOOL,CO-ED SCHOOL,SINGLE SESSION,PRIMARY,No,No,No,No,Chinese,Malay,Tamil
NORTH VIEW PRIMARY SCHOOL,http://www.northviewpri.moe.edu.sg,210  YISHUN AVENUE 6,768960,67593235,NVPS@MOE.EDU.SG,Yishun Khatib,"Feeder Service 804, 806, 807, 860",YISHUN,NORTH,GOVERNMENT SCHOOL,CO-ED SCHOOL,SINGLE SESSION,PRIMARY,No,No,No,No,Chinese,Malay,Tamil
NORTH VISTA PRIMARY SCHOOL,http://www.northvistapri.moe.edu.sg,20   Compassvale Link,544974,64843566,nvtps@moe.edu.sg,"Buangkok MRT (NE15), Ranggung LRT (SE5)",na,SENG KANG,NORTH,GOVERNMENT SCHOOL,CO-ED SCHOOL,SINGLE SESSION,PRIMARY,No,No,No,No,Chinese,Malay,na
NORTH VISTA SECONDARY SCHOOL,http://www.northvistasec.moe.edu.sg,11   RIVERVALE LINK,545081,68793930,northvistass@moe.edu.sg,"SENGKANG MRT, BUANGKOK MRT, RANGGUNG LRT","80, 82, 87, 88, 89, 119",SENG KANG,NORTH,GOVERNMENT SCHOOL,CO-ED SCHOOL,SINGLE SESSION,SECONDARY,No,No,No,No,Chinese,Malay,Tamil
NORTHBROOKS SECONDARY SCHOOL,http://www.northbrookssec.moe.edu.sg,585  YISHUN RING ROAD,768692,67524311,NORTHBROOKS@MOE.EDU.SG,"YISHUN MRT, KHATIB MRT","804, 806, 807, 860, 103",YISHUN,NORTH,GOVERNMENT SCHOOL,CO-ED SCHOOL,SINGLE SESSION,SECONDARY,No,No,No,No,Chinese,Malay,Tamil
NORTHLAND PRIMARY SCHOOL,http://www.northlandpri.moe.edu.sg,15   YISHUN AVENUE 4,769026,67598884,NORTHLAND_PS@MOE.EDU.SG,Yishun MRT Station,812 (next to bus service number 171) at Yishun Interchange,YISHUN,NORTH,GOVERNMENT SCHOOL,CO-ED SCHOOL,SINGLE SESSION,PRIMARY,No,No,No,No,Chinese,Malay,Tamil
NORTHLAND SECONDARY SCHOOL,http://www.northlandsec.moe.edu.sg,3    YISHUN STREET 22,768578,62576781,NORTHLAND_SS@MOE.EDU.SG,YISHUN MRT,"811, 804, 800",YISHUN,NORTH,GOVERNMENT SCHOOL,CO-ED SCHOOL,SINGLE SESSION,SECONDARY,No,No,No,No,Chinese,Malay,Tamil
NORTHLIGHT SCHOOL,https://www.nls.edu.sg,151  Towner Road,327830,+65 69296290,nls@moe.edu.sg,BOON KENG (NE9),"21, 125, 130, 139, 145, 13, 23, 31, 64, 65, 133, 147, 857, 985",KALLANG,SOUTH,SPECIALISED SCHOOL,CO-ED SCHOOL,FULL DAY,SECONDARY,No,No,No,No,Chinese,Malay,Tamil
NORTHOAKS PRIMARY SCHOOL,http://www.northoakspri.moe.edu.sg,61   Sembawang Drive,757622,6753 8835,northoaks_ps@moe.edu.sg,Sembawang MRT,Bus number 962,SEMBAWANG,NORTH,GOVERNMENT SCHOOL,CO-ED SCHOOL,SINGLE SESSION,PRIMARY,No,No,No,No,Chinese,Malay,Tamil
NORTHSHORE PRIMARY SCHOOL,www.northshorepri.moe.edu.sg,30   Northshore Drive,828671,62026490,northhshore_ps@moe.edu.sg,Puggol Point LRT Station,"84, 384",PUNGGOL,EAST,GOVERNMENT SCHOOL,CO-ED SCHOOL,SINGLE SESSION,PRIMARY,No,No,No,No,Chinese,Malay,Tamil
NUS HIGH SCHOOL OF MATHEMATICS AND SCIENCE,www.nushigh.edu.sg,20   Clementi Avenue 1,129957,65161709,einstein@highsch.nus.edu.sg,Nearest MRT Stations - Clementi and Dover,"96, 97, 151, 183, 188, 189, 196, 197, 198",CLEMENTI,WEST,SPECIALISED INDEPENDENT SCHOOL,CO-ED SCHOOL,FULL DAY,MIXED LEVELS,No,No,No,Yes,Chinese,Malay,Tamil
OASIS PRIMARY SCHOOL,http://www.oasispri.moe.edu.sg/,71   Edgefield Plains,828716,6320 9855,oasis_ps@moe.edu.sg,Damai LRT Station,"50, 386",PUNGGOL,EAST,GOVERNMENT SCHOOL,CO-ED SCHOOL,SINGLE SESSION,PRIMARY,No,No,No,No,Chinese,Malay,Tamil
OPERA ESTATE PRIMARY SCHOOL,http://www.operaestatepri.moe.edu.sg,48   FIDELIO STREET,458436,62410417,oeps@moe.edu.sg,"Bedok, Kembangan",42,BEDOK,EAST,GOVERNMENT SCHOOL,CO-ED SCHOOL,SINGLE SESSION,PRIMARY,No,No,No,No,Chinese,Malay,Tamil
ORCHID PARK SECONDARY SCHOOL,http://www.orchidparksec.moe.edu.sg,10   YISHUN STREET 81,768454,67598547,opss@moe.edu.sg,KHATIB MRT,811,YISHUN,NORTH,GOVERNMENT SCHOOL,CO-ED SCHOOL,SINGLE SESSION,SECONDARY,No,No,No,No,Chinese,Malay,Tamil
OUTRAM SECONDARY SCHOOL,http://www.outramsec.moe.edu.sg,3    YORK HILL,168622,67334077,OSS@MOE.EDU.SG,"OUTRAM PARK MRT, CHINATOWN MRT","174 , 123, 16, 175, 195, 33, 5, 63, 75, 851, 970, 123, 186, 51, 64",CENTRAL,SOUTH,GOVERNMENT SCHOOL,CO-ED SCHOOL,SINGLE SESSION,SECONDARY,No,No,No,No,Chinese,Malay,Tamil
PALM VIEW PRIMARY SCHOOL,http://www.palmviewpri.moe.edu.sg,150  Compassvale Bow,544822,65087300,palmview_ps@moe.edu.sg,Buangkok,"27,43,109,156,159,161,163,163M,550",SENG KANG,NORTH,GOVERNMENT SCHOOL,CO-ED SCHOOL,SINGLE SESSION,PRIMARY,No,No,No,No,Chinese,Malay,na
PARK VIEW PRIMARY SCHOOL,http://www.parkviewpri.moe.edu.sg,60   PASIR RIS DRIVE 1,519524,65851421,PVPS@MOE.EDU.SG,Pasir Ris MRT Station,"358,39,53,81,89",PASIR RIS,EAST,GOVERNMENT SCHOOL,CO-ED SCHOOL,SINGLE SESSION,PRIMARY,No,No,No,No,Chinese,Malay,Tamil
PASIR RIS CREST SECONDARY SCHOOL,http://www.prcss.moe.edu.sg,11   PASIR RIS STREET 41,518934,65811655,prcss@moe.edu.sg,PASIR RIS MRT,"358, 17, 81, 12, 3",PASIR RIS,EAST,GOVERNMENT SCHOOL,CO-ED SCHOOL,SINGLE SESSION,SECONDARY,No,No,No,No,Chinese,Malay,Tamil
PASIR RIS PRIMARY SCHOOL,http://www.pasirrispri.moe.edu.sg,5    PASIR RIS STREET 21,518968,65822606,prps@moe.edu.sg,Pasir Ris MRT,"3,5,6,89",PASIR RIS,EAST,GOVERNMENT SCHOOL,CO-ED SCHOOL,SINGLE SESSION,PRIMARY,No,No,No,No,Chinese,Malay,Tamil
PASIR RIS SECONDARY SCHOOL,http://pasirrissec.moe.edu.sg,390  TAMPINES STREET 21,529400,65010800,prss@moe.edu.sg,"TAMPINES MRT, TAMPINES EAST MRT,  TAMPINES WEST MRT","3, 4, 8, 10, 15, 18, 19, 20, 21, 22, 23, 27, 28, 29, 31, 37, 38, 39, 46, 65, 67, 68, 69, 72, 81, 127, 129, 168, 291, 292, 293, 298, 969",TAMPINES,EAST,GOVERNMENT SCHOOL,CO-ED SCHOOL,SINGLE SESSION,SECONDARY,No,No,No,No,Chinese,Malay,Tamil
PAYA LEBAR METHODIST GIRLS' SCHOOL (PRIMARY),http://www.payalebarmethodistgirlspri.moe.edu.sg/,298  LORONG AH SOO,536741,62862795,PLMGPS@MOE.EDU.SG,"Kovan (NE13), Serangoon(NE12/CC13)","45, 53, 53M, 62, 113",HOUGANG,EAST,GOVERNMENT-AIDED SCH,GIRLS' SCHOOL,SINGLE SESSION,PRIMARY,No,No,No,No,Chinese,Malay,Tamil
PAYA LEBAR METHODIST GIRLS' SCHOOL (SECONDARY),http://www.plmgss.moe.edu.sg,296  LOR AH SOO,536742,62816606,plmgss@moe.edu.sg,"KOVAN MRT, SERANGOON MRT","45, 53, 53M, 62, 113",HOUGANG,EAST,GOVERNMENT-AIDED SCH,GIRLS' SCHOOL,SINGLE SESSION,SECONDARY,No,Yes,No,No,Chinese,Malay,Tamil
PEI CHUN PUBLIC SCHOOL,http://www.peichunpublic.moe.edu.sg,16   LORONG 7 TOA PAYOH,319320,63539450,PCPS@MOE.EDU.SG,Toa Payoh MRT Station and Braddell MRT Station,"Bus Service 232, 57",TOA PAYOH,SOUTH,GOVERNMENT-AIDED SCH,CO-ED SCHOOL,SINGLE SESSION,PRIMARY,Yes,No,No,No,Chinese,na,na
PEI HWA PRESBYTERIAN PRIMARY SCHOOL,http://www.peihwapresbyterianpri.moe.edu.sg/,7    PEI WAH AVENUE,597610,64663787,phpps@moe.edu.sg,Beauty World,"970, 852, 174, 173, 157, 77, 61",BUKIT TIMAH,WEST,GOVERNMENT-AIDED SCH,CO-ED SCHOOL,DOUBLE SESSION,PRIMARY,Yes,No,No,No,Chinese,na,na
PEI HWA SECONDARY SCHOOL,http://www.peihwasec.moe.edu.sg,21   FERNVALE LINK,797702,65009580,peihwasec@moe.edu.sg,"SENGKANG MRT, LAYAR LRT","50, 70, 86, 103, 163, 854",SENG KANG,NORTH,GOVERNMENT SCHOOL,CO-ED SCHOOL,SINGLE SESSION,SECONDARY,No,No,No,No,Chinese,Malay,Tamil
PEI TONG PRIMARY SCHOOL,http://www.peitongpri.moe.edu.sg/,15   CLEMENTI AVENUE 5,129857,67775458,PTPS@MOE.EDU.SG,Clementi,"7, 184, 282",CLEMENTI,SOUTH,GOVERNMENT SCHOOL,CO-ED SCHOOL,SINGLE SESSION,PRIMARY,No,No,No,No,Chinese,Malay,Tamil
PEICAI SECONDARY SCHOOL,http://www.peicaisec.moe.edu.sg,10   SERANGOON AVENUE 4,556094,62884159,peicai_ss@moe.edu.sg,SERANGOON MRT,"22, 24, 43, 53, 70, 76, 103, 109, 116, 147, 156, 315, 317, 853",SERANGOON,SOUTH,GOVERNMENT SCHOOL,CO-ED SCHOOL,SINGLE SESSION,SECONDARY,No,No,No,No,Chinese,Malay,Tamil
PEIRCE SECONDARY SCHOOL,http://www.peircesec.moe.edu.sg,10   SIN MING WALK,575566,64576454,PEIRCE_SS@MOE.EDU.SG,"ANG MO KIO MRT, BISHAN MRT, MARYMOUNT MRT, BRIGHT HILL MRT (target opening in Q3, 2021)","52, 132, 162, 163, 165, 166, 167, 410, 855, 980",BISHAN,SOUTH,GOVERNMENT SCHOOL,CO-ED SCHOOL,SINGLE SESSION,SECONDARY,No,No,No,No,Chinese,Malay,Tamil
PEIYING PRIMARY SCHOOL,http://www.peiyingpri.moe.edu.sg,651  YISHUN RING ROAD,768687,62575684,peiying_ps@moe.edu.sg,Khatib,"851, 852, 853, 854, 855",YISHUN,NORTH,GOVERNMENT SCHOOL,CO-ED SCHOOL,SINGLE SESSION,PRIMARY,No,No,No,No,Chinese,Malay,Tamil
PING YI SECONDARY SCHOOL,http://pingyisec.moe.edu.sg,61   CHAI CHEE STREET,468980,64489580,pyss@moe.edu.sg,BEDOK MRT,"26, 222, 222B, 2, 7, 24, 25, 28, 30, 30E, 32, 33, 40, 67, 229, 854, 60, 87",BEDOK,EAST,GOVERNMENT SCHOOL,CO-ED SCHOOL,SINGLE SESSION,SECONDARY,No,No,No,No,Chinese,Malay,Tamil
PIONEER PRIMARY SCHOOL,http://www.pioneerpri.moe.edu.sg,23   JURONG WEST STREET 81,649076,67932397,pioneer_ps@moe.edu.sg,Boon Lay Station,243,JURONG WEST,WEST,GOVERNMENT SCHOOL,CO-ED SCHOOL,SINGLE SESSION,PRIMARY,No,No,No,No,Chinese,Malay,Tamil
POI CHING SCHOOL,http://www.poiching.moe.edu.sg,21   TAMPINES STREET 71,529067,67856420,contact@poiching.moe.edu.sg,Tampines MRT,"Bus 293, 72, 27 and 168",TAMPINES,EAST,GOVERNMENT-AIDED SCH,CO-ED SCHOOL,SINGLE SESSION,PRIMARY,Yes,No,No,No,Chinese,na,na
PRESBYTERIAN HIGH SCHOOL,http://www.presbyterian.moe.edu.sg,5209 ANG MO KIO AVENUE 6,569845,64543722,presbyterian@moe.edu.sg,YIO CHU KANG MRT,"45, 70, 70M, 71, 76, 86, 668, 851, 851e, 852, 853",ANG MO KIO,SOUTH,GOVERNMENT-AIDED SCH,CO-ED SCHOOL,SINGLE SESSION,SECONDARY,No,No,No,No,Chinese,Malay,Tamil
PRINCESS ELIZABETH PRIMARY SCHOOL,http://www.princesselizabethpri.moe.edu.sg,30   BUKIT BATOK WEST AVENUE 3,659163,65655111,PEPS@MOE.EDU.SG,Bukit Batok MRT Station,"Bus 174, 157, 178, 66, 941",BUKIT BATOK,WEST,GOVERNMENT SCHOOL,CO-ED SCHOOL,SINGLE SESSION,PRIMARY,No,No,No,No,Chinese,Malay,Tamil
PUNGGOL COVE PRIMARY SCHOOL,https://punggolcovepri.moe.edu.sg/,52   Sumang Walk,828674,63857339,punggolcove_ps@moe.edu.sg,Nibong LRT Station,"382W, 84",PUNGGOL,EAST,GOVERNMENT SCHOOL,CO-ED SCHOOL,SINGLE SESSION,PRIMARY,No,No,No,No,Chinese,Malay,Tamil
PUNGGOL GREEN PRIMARY SCHOOL,http://www.punggolgreenpri.moe.edu.sg,98   Punggol Walk,828772,65383011,admin_punggolgreen_ps@moe.edu.sg,Punggol MRT Station,na,PUNGGOL,EAST,GOVERNMENT SCHOOL,CO-ED SCHOOL,SINGLE SESSION,PRIMARY,No,No,No,No,Chinese,Malay,Tamil
PUNGGOL PRIMARY SCHOOL,http://www.punggolpri.moe.edu.sg/,61   HOUGANG AVENUE 8,538787,63850762,punggol_ps@moe.edu.sg,"Hougang, Buangkok",62 74 88 113 147 325,HOUGANG,SOUTH,GOVERNMENT SCHOOL,CO-ED SCHOOL,SINGLE SESSION,PRIMARY,No,No,No,No,Chinese,Malay,Tamil
PUNGGOL SECONDARY SCHOOL,http://www.punggolsec.moe.edu.sg,51   EDGEFIELD PLAINS,828870,64897851,PUNGGOL_SS@MOE.EDU.SG,"PUNGGOL MRT, COVE LRT","3, 34, 62, 82, 83, 85, 136, 965, 386",PUNGGOL,NORTH,GOVERNMENT SCHOOL,CO-ED SCHOOL,SINGLE SESSION,SECONDARY,No,No,No,No,Chinese,Malay,Tamil
PUNGGOL VIEW PRIMARY SCHOOL,http://www.punggolviewpri.moe.edu.sg,9    Punggol Place,828845,6570 1588,punggolview_ps@moe.edu.sg,Punggol MRT Station,50 382,PUNGGOL,EAST,GOVERNMENT SCHOOL,CO-ED SCHOOL,SINGLE SESSION,PRIMARY,No,No,No,No,Chinese,Malay,Tamil
QIFA PRIMARY SCHOOL,http://www.qifapri.moe.edu.sg,50   WEST COAST AVENUE,128104,67783085,QIFA_PS@MOE.EDU.SG,Clementi MRT Station,"30,51,78,143,285,655",CLEMENTI,WEST,GOVERNMENT SCHOOL,CO-ED SCHOOL,SINGLE SESSION,PRIMARY,No,No,No,No,Chinese,Malay,Tamil
QIHUA PRIMARY SCHOOL,http://www.qihuapri.moe.edu.sg,5    WOODLANDS STREET 81,738525,62696250,QIHUA_PS@MOE.EDU.SG,Woodlands MRT Station,"911, 900",WOODLANDS,NORTH,GOVERNMENT SCHOOL,CO-ED SCHOOL,SINGLE SESSION,PRIMARY,No,No,No,No,Chinese,Malay,Tamil
QUEENSTOWN PRIMARY SCHOOL,http://www.queenstownpri.moe.edu.sg,310  MARGARET DR,149303,64741044,qtps@moe.edu.sg,Queenstown MRT,"32, 111, 145, 195",QUEENSTOWN,SOUTH,GOVERNMENT SCHOOL,CO-ED SCHOOL,SINGLE SESSION,PRIMARY,No,No,No,No,Chinese,Malay,Tamil
QUEENSTOWN SECONDARY SCHOOL,http://www.queenstownsec.moe.edu.sg,1    STRATHMORE ROAD,148800,64741055,qtss@moe.edu.sg,"REDHILL MRT, QUEENSTOWN MRT","33, 51, 64, 111, 120, 139, 145, 186, 970",QUEENSTOWN,SOUTH,GOVERNMENT SCHOOL,CO-ED SCHOOL,SINGLE SESSION,SECONDARY,No,No,No,No,Chinese,Malay,Tamil
QUEENSWAY SECONDARY SCHOOL,http://www.queenswaysec.moe.edu.sg,2A   MARGARET DRIVE,149295,64741421,QSS@moe.edu.sg,"COMMONWEALTH MRT, QUEENSTOWN MRT","32, 51, 93, 100, 105, 111, 122, 123, 145, 147, 153, 186, 195, 196, 198, 855, 961, 970",QUEENSTOWN,SOUTH,GOVERNMENT SCHOOL,CO-ED SCHOOL,SINGLE SESSION,SECONDARY,No,No,No,No,Chinese,Malay,Tamil
RADIN MAS PRIMARY SCHOOL,http://www.radinmasps.moe.edu.sg,1    BUKIT PURMEI AVENUE,99840,62733937,rmps@moe.edu.sg,Tiong Bahru MRT HarbourFront MRT,"SBS 123, 131, 275 SBS 65",BUKIT MERAH,SOUTH,GOVERNMENT SCHOOL,CO-ED SCHOOL,SINGLE SESSION,PRIMARY,No,No,No,No,Chinese,Malay,Tamil
RAFFLES GIRLS' PRIMARY SCHOOL,http://www.rafflesgirlspri.moe.edu.sg,21   Hillcrest Road,289072,64684377,RGPS@MOE.EDU.SG,TAN KAH KEE MRT STATION,"66, 67, 74, 151, 154, 156, 157, 170, 171, 174, 852, 961",BUKIT TIMAH,SOUTH,GOVERNMENT SCHOOL,GIRLS' SCHOOL,SINGLE SESSION,PRIMARY,No,No,Yes,No,Chinese,Malay,Tamil
RAFFLES GIRLS' SCHOOL (SECONDARY),http://www.rgs.edu.sg,2    BRADDELL RISE,318871,67371845,RGSS@MOE.EDU.SG,"BRADDELL MRT, CALDECOTT MRT","59, 93, 129, 156, 157, 163, 231, 232, 235",CENTRAL,SOUTH,INDEPENDENT SCHOOL,GIRLS' SCHOOL,SINGLE SESSION,SECONDARY,No,No,Yes,Yes,Chinese,Malay,Tamil
RAFFLES INSTITUTION,http://www.ri.edu.sg,1    RAFFLES INSTITUTION LANE,575954,64199242,comms@ri.edu.sg,"BISHAN MRT, MARYMOUNT MRT","410,13,50,52,53,54,55,56,57,58,59,71,74,88,93,128,130,132,156,157,162,163,165,166,167,851,852,855,980",BISHAN,SOUTH,INDEPENDENT SCHOOL,CO-ED SCHOOL,SINGLE SESSION,MIXED LEVELS,No,No,Yes,Yes,Chinese,Malay,Tamil
RED SWASTIKA SCHOOL,http://www.redswastika.moe.edu.sg,350  BEDOK NORTH AVENUE 3,469719,64430380,REDSWASTIKA@MOE.EDU.SG,Bedok Reservoir MRT,"Bus 14, 17, 28, 46, 66, 67, 69, 222, 228",BEDOK,EAST,GOVERNMENT-AIDED SCH,CO-ED SCHOOL,SINGLE SESSION,PRIMARY,Yes,No,No,No,Chinese,na,na
REGENT SECONDARY SCHOOL,http://regentsec.moe.edu.sg,50   CHOA CHU KANG NORTH 5,689621,67653828,REGENT_SS@MOE.EDU.SG,"YEW TEE MRT, CHOA CHU KANG MRT","307, 160, 170, 178, 925, 927, 960, 961, 979",CHOA CHU KANG,WEST,GOVERNMENT SCHOOL,CO-ED SCHOOL,SINGLE SESSION,SECONDARY,No,No,No,No,Chinese,Malay,Tamil
RIVER VALLEY HIGH SCHOOL,https://rivervalleyhigh.moe.edu.sg/,6    BOON LAY AVENUE,649961,65678115,RVHS@MOE.EDU.SG,"BOON LAY MRT, LAKESIDE MRT","99, 157, 172, 174, 174E, 198, 240, 502, 974, NR5",JURONG WEST,WEST,GOVERNMENT SCHOOL,CO-ED SCHOOL,SINGLE SESSION,MIXED LEVELS,Yes,Yes,No,Yes,Chinese,na,na
RIVER VALLEY PRIMARY SCHOOL,http://www.rivervalleypri.moe.edu.sg,2    RIVER VALLEY GREEN,237993,67371785,rvps@moe.edu.sg,Somerset MRT,"5, 16, 32, 54, 65, 75, 175, 970",CENTRAL,SOUTH,GOVERNMENT SCHOOL,CO-ED SCHOOL,SINGLE SESSION,PRIMARY,No,No,No,No,Chinese,Malay,Tamil
RIVERSIDE PRIMARY SCHOOL,http://www.riversidepri.moe.edu.sg,110  Woodlands Crescent,737803,63654490,riverside_ps@moe.edu.sg,Admiralty MRT Station,Bus No 913 and Bus No 964,WOODLANDS,NORTH,GOVERNMENT SCHOOL,CO-ED SCHOOL,SINGLE SESSION,PRIMARY,No,No,No,No,Chinese,Malay,Tamil
RIVERSIDE SECONDARY SCHOOL,http://www.riversidesec.moe.edu.sg,3    WOODLANDS STREET 81,738524,62699631,RIVERSIDE_SS@MOE.EDU.SG,WOODLANDS MRT,"858, 900, 911, 913, 964, 962, 965, 969, 169, 903",WOODLANDS,NORTH,GOVERNMENT SCHOOL,CO-ED SCHOOL,SINGLE SESSION,SECONDARY,No,No,No,No,Chinese,Malay,Tamil
RIVERVALE PRIMARY SCHOOL,http://www.rivervalepri.moe.edu.sg/,80   RIVERVALE DRIVE,545092,63887450,RIVERVALE_PS@MOE.EDU.SG,Nearest LRT Station : Rumbia,"Bus Service 86, 371.",SENG KANG,NORTH,GOVERNMENT SCHOOL,CO-ED SCHOOL,SINGLE SESSION,PRIMARY,No,No,No,No,Chinese,Malay,Tamil
ROSYTH SCHOOL,https://www.rosyth.moe.edu.sg,21   Serangoon North Avenue 4,555855,64812273,rosyth_sch@schools.gov.sg,"Ang Mo Kio, Serangoon","73, 315, 116",SERANGOON,NORTH,GOVERNMENT SCHOOL,CO-ED SCHOOL,SINGLE SESSION,PRIMARY,No,No,Yes,No,Chinese,Malay,Tamil
RULANG PRIMARY SCHOOL,http://www.rulangpri.moe.edu.sg/,6    JURONG WEST STREET 52,649295,65657771,RULANG_PS@MOE.EDU.SG,Lakeside,SBS 335,JURONG WEST,WEST,GOVERNMENT SCHOOL,CO-ED SCHOOL,DOUBLE SESSION,PRIMARY,No,No,No,No,Chinese,Malay,Tamil
"SCHOOL OF SCIENCE AND TECHNOLOGY, SINGAPORE",http://www.sst.edu.sg,1    Technology Drive,138572,(65) 65717200,contactus@sst.edu.sg,Dover,"14, 74, 105, 106, 147, 166, 185",CLEMENTI,WEST,SPECIALISED INDEPENDENT SCHOOL,CO-ED SCHOOL,FULL DAY,SECONDARY,No,No,No,No,Chinese,Malay,Tamil
"SCHOOL OF THE ARTS, SINGAPORE",http://www.sota.edu.sg/,1    Zubir Said Drive,227968,6338 9663,enquiries@sota.edu.sg,Dhoby Ghaut,"7, 14, 16, 36, 64, 65, 77, 106, 111, 124, 128, 131, 147, 162, 166, 167, 171, 174, 175, 190, 502, 518, 700, 857,",CENTRAL,SOUTH,SPECIALISED INDEPENDENT SCHOOL,CO-ED SCHOOL,SINGLE SESSION,MIXED LEVELS,No,No,No,No,Chinese,Malay,Tamil
SEMBAWANG PRIMARY SCHOOL,http://www.sembawangpri.moe.edu.sg,10   SEMBAWANG DRIVE,757715,67567330,SEMBAWANG_PS@MOE.EDU.SG,Sembawang MRT (6 to 8-minute walk),"656, 859, 962, 980",SEMBAWANG,NORTH,GOVERNMENT SCHOOL,CO-ED SCHOOL,SINGLE SESSION,PRIMARY,No,No,No,No,Chinese,Malay,Tamil
SEMBAWANG SECONDARY SCHOOL,http://www.sembawangsec.moe.edu.sg,30   SEMBAWANG CRESCENT,757704,67566760,SEMBAWANG_SS@MOE.EDU.SG,SEMBAWANG MRT,"859, 859A, 962",SEMBAWANG,NORTH,GOVERNMENT SCHOOL,CO-ED SCHOOL,SINGLE SESSION,SECONDARY,No,No,No,No,Chinese,Malay,Tamil
SENG KANG PRIMARY SCHOOL,http://www.sengkangpri.moe.edu.sg/,21   COMPASSVALE WALK,545166,63840809,SKPS@MOE.EDU.SG,Sengkang MRT,"27, 80, 82, 83, 86, 87, 88, 89, 119, 156, 163, 371, 372 & 965",SENG KANG,NORTH,GOVERNMENT SCHOOL,CO-ED SCHOOL,SINGLE SESSION,PRIMARY,No,No,No,No,Chinese,Malay,Tamil
SENG KANG SECONDARY SCHOOL,http://www.sengkangsec.moe.edu.sg,10   COMPASSVALE LANE,545090,63887258,skss@moe.edu.sg,"SENGKANG MRT, RANGGUNG LRT","27, 80, 85, 86, 87, 89, 89E, 163, 163M, 372",SENG KANG,NORTH,GOVERNMENT SCHOOL,CO-ED SCHOOL,SINGLE SESSION,SECONDARY,No,No,No,No,Chinese,Malay,Tamil
SENGKANG GREEN PRIMARY SCHOOL,http://www.sengkanggreenpri.moe.edu.sg/,15   Fernvale Road,797636,63864255,sengkanggreen_ps@moe.edu.sg,Fernvale LRT (SW5) - (Sengkang West Loop),"Sengkang and Toa Payoh interchange - no 163, Along Yio Chu Kang Road, - no 70, 86, 103 and 854.Punggol Temp Interchange to Bishan Interchange - Bus 50",SENG KANG,EAST,GOVERNMENT SCHOOL,CO-ED SCHOOL,SINGLE SESSION,PRIMARY,No,No,No,No,Chinese,Malay,Tamil
SERANGOON GARDEN SECONDARY SCHOOL,http://www.sgs.edu.sg,21   SERANGOON NORTH AVENUE 1,555889,62889227,sgss@moe.edu.sg,"SERANGOON MRT, ANG MO KIO MRT","25, 55, 73, 74, 74e, 76, 132, 165, 315",SERANGOON,SOUTH,GOVERNMENT SCHOOL,CO-ED SCHOOL,SINGLE SESSION,SECONDARY,No,No,No,No,Chinese,Malay,Tamil
SERANGOON SECONDARY SCHOOL,http://www.serangoonsec.moe.edu.sg,11   UPPER SERANGOON VIEW,534237,63851589,SERANGOON_SS@MOE.EDU.SG,"HOUGANG MRT, KANGKAR LRT","62, 74, 102, 113, 119, 136, 147, 324",HOUGANG,NORTH,GOVERNMENT SCHOOL,CO-ED SCHOOL,SINGLE SESSION,SECONDARY,No,No,No,No,Chinese,Malay,Tamil
SHUQUN PRIMARY SCHOOL,http://www.shuqunpri.moe.edu.sg,8    JURONG WEST STREET 51,649332,65637129,sqps@moe.edu.sg,W11 Lakeside,"98, 187, 335",JURONG WEST,WEST,GOVERNMENT SCHOOL,CO-ED SCHOOL,SINGLE SESSION,PRIMARY,No,No,No,No,Chinese,Malay,Tamil
SI LING PRIMARY SCHOOL,http://www.silingpri.moe.edu.sg,61   WOODLANDS AVENUE 1,739067,62698832,SLPS@MOE.EDU.SG,Woodlands,912 from Woodlands Interchange,WOODLANDS,NORTH,GOVERNMENT SCHOOL,CO-ED SCHOOL,SINGLE SESSION,PRIMARY,No,No,No,No,Chinese,Malay,Tamil
SINGAPORE CHINESE GIRLS' PRIMARY SCHOOL,www.scgs.moe.edu.sg,190  DUNEARN ROAD,309437,62527966,SCGPS@MOE.EDU.SG,Stevens,"66, 67, 105, 132, 151, 153, 154, 156, 170, 171, 186, 190, 605, 700, 960",NOVENA,NORTH,GOVERNMENT-AIDED SCH,GIRLS' SCHOOL,SINGLE SESSION,PRIMARY,No,No,No,No,Chinese,Malay,Tamil
SINGAPORE CHINESE GIRLS' SCHOOL,http://www.scgs.moe.edu.sg,190  DUNEARN ROAD,309437,62527966,SCGSS@MOE.EDU.SG,STEVENS MRT,"48, 66, 67, 105, 132, 151, 153, 154, 156, 170, 186, 190, 960, 971E, 972",NOVENA,NORTH,INDEPENDENT SCHOOL,GIRLS' SCHOOL,SINGLE SESSION,SECONDARY,No,No,No,Yes,Chinese,Malay,Tamil
SINGAPORE SPORTS SCHOOL,http://www.sportsschool.edu.sg,1    Champions Way,737913,67660100,enquire@sportsschool.edu.sg,Woodlands South MRT,"665, 900A, 901, 901M",WOODLANDS,NORTH,SPECIALISED INDEPENDENT SCHOOL,CO-ED SCHOOL,FULL DAY,MIXED LEVELS,No,No,No,No,Chinese,Malay,Tamil
SOUTH VIEW PRIMARY SCHOOL,http://www.southviewpri.moe.edu.sg,6    Choa Chu Kang Central,689762,67697176,SVPS@MOE.EDU.SG,Choa Chu Kang MRT Station,307 / South View LRT Station,CHOA CHU KANG,WEST,GOVERNMENT SCHOOL,CO-ED SCHOOL,SINGLE SESSION,PRIMARY,No,No,No,No,Chinese,Malay,Tamil
SPECTRA SECONDARY SCHOOL,https://www.spectra.edu.sg,1    WOODLANDS DRIVE 64,737758,64660775,spectra@schools.gov.sg,ADMIRALTY MRT,"901M, 904, 912, 913, 962, 964, 965, 969",WOODLANDS,NORTH,SPECIALISED SCHOOL,CO-ED SCHOOL,SINGLE SESSION,SECONDARY,No,No,No,No,Chinese,Malay,Tamil
SPRINGDALE PRIMARY SCHOOL,http://springdalepri.moe.edu.sg/,71   Anchorvale Link,544799,+65 63157600,springdale_ps@moe.edu.sg,Sengkang Station (NE16)  Nearest LRT station: Farmway  *10-15 min walk from either station,"50, 85, 102, 372    Nearest Bus Stop: In front of Blk 326 Car Park  *1-2 min walk from bus stop; enter by Main Gate along Anchorvale Link or Rear Gate",SENG KANG,EAST,GOVERNMENT SCHOOL,CO-ED SCHOOL,SINGLE SESSION,PRIMARY,No,No,No,No,Chinese,Malay,Tamil
SPRINGFIELD SECONDARY SCHOOL,http://www.springfieldsec.moe.edu.sg,30   TAMPINES AVENUE 8,529593,63183053,SPRINGFIELDS@MOE.EDU.SG,"TAMPINES MRT, TAMPINES WEST MRT","8, 15, 23, 58, 69, 118, 129, 291, 293, 298, 513, 518",TAMPINES,EAST,GOVERNMENT SCHOOL,CO-ED SCHOOL,SINGLE SESSION,SECONDARY,No,No,No,No,Chinese,Malay,na
ST. ANDREW'S JUNIOR COLLEGE,http://www.standrewsjc.moe.edu.sg/,5    Sorby Adams Drive,357691,62857008,sajc@moe.edu.sg,Potong Pasir NE10,"SBSTransit: 8, 26, 31, 90, 142 ,151, 154 (Diocese of Singapore) SMRT Buses:  857, 966, 985 (Diocese of Singapore),  853 (Upper Serangoon Road)",TOA PAYOH,SOUTH,GOVERNMENT-AIDED SCH,CO-ED SCHOOL,FULL DAY,JUNIOR COLLEGE,No,No,No,No,na,na,na
ST. ANDREW'S JUNIOR SCHOOL,http://www.saintandrewsjunior.moe.edu.sg,2    FRANCIS THOMAS DRIVE,359337,62884303,sajs@moe.edu.sg,"Potong Pasir,Toa Payoh","8,13,26,31,90,90A,107,133,142,147,853,NR6",TOA PAYOH,SOUTH,GOVERNMENT-AIDED SCH,BOYS' SCHOOL,SINGLE SESSION,PRIMARY,No,No,No,No,Chinese,Malay,Tamil
ST. ANDREW'S SECONDARY SCHOOL,http://www.standrewssec.moe.edu.sg,15   FRANCIS THOMAS DRIVE,359342,62851944,sass@moe.edu.sg,POTONG PASIR MRT,"8, 13, 26, 31, 90, 90A, 107, 133, 142, 147, 853",TOA PAYOH,SOUTH,GOVERNMENT-AIDED SCH,BOYS' SCHOOL,SINGLE SESSION,SECONDARY,No,No,No,No,Chinese,Malay,Tamil
ST. ANTHONY'S CANOSSIAN PRIMARY SCHOOL,http://www.stanthonyscanossianpri.moe.edu.sg,1602 BEDOK NORTH AVE 4,469701,64492239,sacps@moe.edu.sg,Bedok MRT,17,BEDOK,EAST,GOVERNMENT-AIDED SCH,GIRLS' SCHOOL,SINGLE SESSION,PRIMARY,No,No,No,No,Chinese,Malay,Tamil
ST. ANTHONY'S CANOSSIAN SECONDARY SCHOOL,http://www.stanthonyscanossiansec.moe.edu.sg,1600 BEDOK NORTH AVENUE 4,469700,64490616,sacss@moe.edu.sg,"BEDOK MRT, BEDOK RESERVOIR MRT","17, 14, 46, 222",BEDOK,EAST,GOVERNMENT-AIDED SCH,GIRLS' SCHOOL,SINGLE SESSION,SECONDARY,No,Yes,No,No,Chinese,Malay,Tamil
ST. ANTHONY'S PRIMARY SCHOOL,http://www.stanthonyspri.moe.edu.sg,30   Bukit Batok St 32,659401,65690822,SAPS@MOE.EDU.SG,Bukit Gombak MRT Station,945,BUKIT BATOK,WEST,GOVERNMENT-AIDED SCH,CO-ED SCHOOL,SINGLE SESSION,PRIMARY,No,No,No,No,Chinese,Malay,Tamil
ST. GABRIEL'S PRIMARY SCHOOL,http://www.stgabrielspri.moe.edu.sg,220  Lorong Chuan,556742,62803628,STGPS@MOE.EDU.SG,Lor Chuan MRT Station (Circle Line),"73, 105, 159",SERANGOON,SOUTH,GOVERNMENT-AIDED SCH,BOYS' SCHOOL,SINGLE SESSION,PRIMARY,No,No,No,No,Chinese,Malay,Tamil
ST. GABRIEL'S SECONDARY SCHOOL,http://www.stgabrielssec.moe.edu.sg,24   SERANGOON AVENUE 1,556140,62889470,STGSS@MOE.EDU.SG,SERANGOON MRT,158,SERANGOON,SOUTH,GOVERNMENT-AIDED SCH,BOYS' SCHOOL,SINGLE SESSION,SECONDARY,No,No,No,No,Chinese,Malay,Tamil
ST. HILDA'S PRIMARY SCHOOL,http://www.shps.moe.edu.sg,2    Tampines Ave 3,529706,67811916,shps@moe.edu.sg,"Tampines West, Tampines Central",Feeder Bus service: 293 from Tampines Interchange (towards St 71),TAMPINES,EAST,GOVERNMENT-AIDED SCH,CO-ED SCHOOL,SINGLE SESSION,PRIMARY,No,No,Yes,No,Chinese,Malay,Tamil
ST. HILDA'S SECONDARY SCHOOL,http://www.sthildassec.moe.edu.sg,2    TAMPINES STREET 82,528986,63055277,SHSS@MOE.EDU.SG,"TAMPINES MRT, TAMPINES WEST MRT","22, 129, 293, 298",TAMPINES,EAST,GOVERNMENT-AIDED SCH,CO-ED SCHOOL,SINGLE SESSION,SECONDARY,No,No,No,No,Chinese,Malay,Tamil
ST. JOSEPH'S INSTITUTION,http://www.sji.edu.sg,38   MALCOLM ROAD,308274,62500022,contact@sji.edu.sg,STEVENS MRT,"105, 132, 151, 153, 154, 156, 186, 190, 960, 972",NOVENA,SOUTH,INDEPENDENT SCHOOL,CO-ED SCHOOL,SINGLE SESSION,MIXED LEVELS,No,No,No,Yes,Chinese,Malay,Tamil
ST. JOSEPH'S INSTITUTION JUNIOR,http://www.sjijunior.edu.sg,3    ESSEX ROAD,309331,62552700,sjijunior@moe.edu.sg,Novena,21;54;56;57;124;131;141;166;518;851;980,NOVENA,SOUTH,GOVERNMENT-AIDED SCH,BOYS' SCHOOL,SINGLE SESSION,PRIMARY,No,No,No,No,Chinese,Malay,Tamil
ST. MARGARET'S PRIMARY SCHOOL,na,2    Mattar Road,387724,na,na,Mattar MRT Station (DT25),"40, 61, 63, 65, 66, 135, 154, 155, 158",CENTRAL,SOUTH,GOVERNMENT-AIDED SCH,GIRLS' SCHOOL,SINGLE SESSION,PRIMARY,No,No,No,No,Chinese,Malay,Tamil
ST. MARGARET'S SECONDARY SCHOOL,http://www.stmargaretssec.moe.edu.sg,111  FARRER ROAD,259240,64664525,stmargaretss@moe.edu.sg,FARRER ROAD MRT,"48, 93, 153, 165, 174, 186, 855, 961",BUKIT TIMAH,SOUTH,GOVERNMENT-AIDED SCH,GIRLS' SCHOOL,SINGLE SESSION,SECONDARY,No,Yes,No,No,Chinese,Malay,Tamil
ST. PATRICK'S SCHOOL,http://www.stpatricks.moe.edu.sg,490  EAST COAST ROAD,429058,63440929,stpatricksch@moe.edu.sg,KEMBANGAN MRT,"10, 10E, 12, 13, 14, 14E, 15, 16, 31, 32, 36, 40, 43, 47, 48, 55, 135, 150, 155, 196, 197",BEDOK,EAST,GOVERNMENT-AIDED SCH,BOYS' SCHOOL,SINGLE SESSION,SECONDARY,No,No,No,No,Chinese,Malay,Tamil
ST. STEPHEN'S SCHOOL,http://www.ststephens.moe.edu.sg,20   SIGLAP VIEW,455789,62419513,STSTEPHENSCH@MOE.EDU.SG,Kembangan MRT Station,"2,7,24,25,26,28,30,32,33,67,854",BEDOK,EAST,GOVERNMENT-AIDED SCH,BOYS' SCHOOL,SINGLE SESSION,PRIMARY,No,No,No,No,Chinese,Malay,Tamil
STAMFORD PRIMARY SCHOOL,http://www.stamfordpri.moe.edu.sg,1    VICTORIA LANE,198423,62945074,STAMFORD_PS@MOE.EDU.SG,"Bugis MRT Station, Jalan Besar MRT Station","Along Victoria Street:2,7,12,32,33, 51, 61,63,80,130,133,145, 175, 197",CENTRAL,SOUTH,GOVERNMENT SCHOOL,CO-ED SCHOOL,SINGLE SESSION,PRIMARY,No,No,No,No,Chinese,Malay,Tamil
SWISS COTTAGE SECONDARY SCHOOL,http://www.swisscottagesec.moe.edu.sg,3    BUKIT BATOK STREET 34,659322,65637173,SCSS@MOE.EDU.SG,BUKIT GOMBAK MRT,"187, 188, 985, 945",BUKIT BATOK,WEST,GOVERNMENT SCHOOL,CO-ED SCHOOL,SINGLE SESSION,SECONDARY,No,No,No,No,Chinese,Malay,Tamil
TAMPINES MERIDIAN JUNIOR COLLEGE,http://www.tmjc.moe.edu.sg,21   Pasir Ris Street 71,518799,63493660,tmjc@moe.edu.sg,Pasir Ris MRT Station,"3, 39, 53, 81, 89, 109, 358, 518",PASIR RIS,EAST,GOVERNMENT SCHOOL,CO-ED SCHOOL,FULL DAY,JUNIOR COLLEGE,No,No,No,No,Chinese,Malay,Tamil
TAMPINES NORTH PRIMARY SCHOOL,http://www.tampinesnorthpri.moe.edu.sg,30   TAMPINES AVENUE 9,529565,67854329,TNPS@MOE.EDU.SG,Tampines MRT,"SBS Transit 28, 29, 293",TAMPINES,EAST,GOVERNMENT SCHOOL,CO-ED SCHOOL,SINGLE SESSION,PRIMARY,No,No,No,No,Chinese,Malay,Tamil
TAMPINES PRIMARY SCHOOL,http://www.tampinespri.moe.edu.sg,250  TAMPINES STREET 12,529426,67831190,TPPS@MOE.EDU.SG,Tampines MRT,"8, 10, 17,18, 27, 31, 65, 292, 293, or any bus going into Tampines Interchange",TAMPINES,EAST,GOVERNMENT SCHOOL,CO-ED SCHOOL,SINGLE SESSION,PRIMARY,No,No,No,No,Chinese,Malay,Tamil
TAMPINES SECONDARY SCHOOL,https://www.tampinessec.moe.edu.sg,252  TAMPINES ST 12,529427,67835423,TPSS@MOE.EDU.SG,TAMPINES MRT,"3,  8,  10,  15,  17,  18,  20,  21,  23,  27,  28,  31,  34,  39,  59,  65,  129,  168,  292,  298,  518",TAMPINES,EAST,GOVERNMENT SCHOOL,CO-ED SCHOOL,SINGLE SESSION,SECONDARY,No,No,No,No,Chinese,Malay,Tamil
TANGLIN SECONDARY SCHOOL,http://www.tanglinsec.moe.edu.sg,301  WEST COAST ROAD,127391,64248200,tanglin_ss@moe.edu.sg,CLEMENTI MRT,"30, 51, 78, 143, 285, 655",CLEMENTI,SOUTH,GOVERNMENT SCHOOL,CO-ED SCHOOL,SINGLE SESSION,SECONDARY,No,No,No,No,Chinese,Malay,Tamil
TANJONG KATONG GIRLS' SCHOOL,http://www.tkgs.moe.edu.sg,20   Dunman Lane,439272,63441593,tkgs@moe.edu.sg,"PAYA LEBAR MRT, DAKOTA MRT","10, 16, 31, 32, 33, 40, 43, 134, 135, 197",MARINE PARADE,EAST,GOVERNMENT SCHOOL,GIRLS' SCHOOL,SINGLE SESSION,SECONDARY,No,Yes,No,No,Chinese,Malay,Tamil
TANJONG KATONG PRIMARY SCHOOL,http://www.tanjongkatongpri.moe.edu.sg/,10   Seraya Road,437259,63444728,TKPS@MOE.EDU.SG,na,na,MARINE PARADE,EAST,GOVERNMENT SCHOOL,CO-ED SCHOOL,SINGLE SESSION,PRIMARY,No,No,No,No,Chinese,Malay,Tamil
TANJONG KATONG SECONDARY SCHOOL,http://www.tanjongkatongsec.moe.edu.sg,130  HAIG ROAD,438796,63443471,tkss@moe.edu.sg,"PAYA LEBAR MRT, DAKOTA MRT","10, 16, 31, 32, 33, 40, 76, 135, 197",MARINE PARADE,EAST,GOVERNMENT SCHOOL,CO-ED SCHOOL,SINGLE SESSION,SECONDARY,No,Yes,No,No,Chinese,Malay,Tamil
TAO NAN SCHOOL,http://www.taonan.moe.edu.sg,49   MARINE CRESCENT,449761,64428307,taonan_sch@moe.edu.sg,"Paya Lebar, Eunos","13, 16, 31, 36, 43, 48, 55, 134, 196, 197",MARINE PARADE,EAST,GOVERNMENT-AIDED SCH,CO-ED SCHOOL,SINGLE SESSION,PRIMARY,Yes,No,Yes,No,Chinese,na,na
TECK GHEE PRIMARY SCHOOL,http://www.teckgheepri.moe.edu.sg,1    ANG MO KIO STREET 32,569299,64548769,tgps@moe.edu.sg,Ang Mo Kio & Bishan,"22,24,135,853,162,262,159",ANG MO KIO,SOUTH,GOVERNMENT SCHOOL,CO-ED SCHOOL,SINGLE SESSION,PRIMARY,No,No,No,No,Chinese,Malay,Tamil
TECK WHYE PRIMARY SCHOOL,http://www.teckwhyepri.moe.edu.sg,11   TECK WHYE WALK,688261,67691025,twps@moe.edu.sg,Choa Chu Kang MRT & LRT,"975, 190 & 985",CHOA CHU KANG,WEST,GOVERNMENT SCHOOL,CO-ED SCHOOL,SINGLE SESSION,PRIMARY,No,No,No,No,Chinese,Malay,Tamil
TECK WHYE SECONDARY SCHOOL,http://www.teckwhyesec.moe.edu.sg,31   TECK WHYE CRESCENT,688848,67691386,TWSS@MOE.EDU.SG,"CHUA CHU KANG MRT, PHOENIX LRT","975, 985, 190, 982E",CHOA CHU KANG,WEST,GOVERNMENT SCHOOL,CO-ED SCHOOL,SINGLE SESSION,SECONDARY,No,No,No,No,Chinese,Malay,Tamil
TELOK KURAU PRIMARY SCHOOL,http://www.telokkuraupri.moe.edu.sg,50   BEDOK RESERVOIR RD,479239,62441600,telokkuraups@moe.edu.sg,Kaki Bukit MRT (nearest),"8, 15, 22, 55, 65, 60,66, 87 & 506",BEDOK,EAST,GOVERNMENT SCHOOL,CO-ED SCHOOL,SINGLE SESSION,PRIMARY,No,No,No,No,Chinese,Malay,Tamil
TEMASEK JUNIOR COLLEGE,http://www.temasekjc.moe.edu.sg,22   BEDOK SOUTH ROAD,469278,64428066,TEMASEK_JC@MOE.EDU.SG,BEDOK MRT,"12, 12E, 16, 31, 38, 47, 137, 155, 196, 196A, 197, 229",BEDOK,EAST,GOVERNMENT SCHOOL,CO-ED SCHOOL,FULL DAY,MIXED LEVELS,No,No,No,Yes,Chinese,Malay,Tamil
TEMASEK PRIMARY SCHOOL,http://www.temasekpri.moe.edu.sg,501  BEDOK SOUTH AVE 3,469300,64438134,temasek_ps@moe.edu.sg,Tanah Merah MRT,"229, 10, 14, 13, 48, 43, 506",BEDOK,EAST,GOVERNMENT SCHOOL,CO-ED SCHOOL,SINGLE SESSION,PRIMARY,No,No,No,No,Chinese,Malay,Tamil
TEMASEK SECONDARY SCHOOL,https://temaseksec.moe.edu.sg,600  UPPER EAST COAST ROAD,465561,64495020,temasek_ss@moe.edu.sg,"BEDOK MRT, TANAH MERAH MRT","10, 10E, 13, 14, 25, 43, 46, 55, 137, 229, 506, 531, 853",BEDOK,EAST,GOVERNMENT SCHOOL,CO-ED SCHOOL,SINGLE SESSION,SECONDARY,No,Yes,No,No,Chinese,Malay,Tamil
TOWNSVILLE PRIMARY SCHOOL,http://www.townsvillepri.moe.edu.sg/,3    ANG MO KIO AVE 10,569730,64574345,TOWNSVILLEPS@MOE.EDU.SG,"Bishan MRT, Ang Mo Kio MRT Stations","45, 50, 55, 261, 548, 22, 24, 128, 135, 159, 162, 162M, 262, 853",ANG MO KIO,SOUTH,GOVERNMENT SCHOOL,CO-ED SCHOOL,SINGLE SESSION,PRIMARY,No,No,No,No,Chinese,Malay,Tamil
UNITY PRIMARY SCHOOL,http://www.unitypri.moe.edu.sg,21   CHOA CHU KANG CRESCENT,688268,67676750,UNITY_PS@MOE.EDU.SG,Yew Tee MRT,TIBs 302,CHOA CHU KANG,WEST,GOVERNMENT SCHOOL,CO-ED SCHOOL,SINGLE SESSION,PRIMARY,No,No,No,No,Chinese,Malay,na
UNITY SECONDARY SCHOOL,http://www.unitysec.moe.edu.sg,20   CHOA CHU KANG STREET 62,689143,67671070,UNITY_SS@MOE.EDU.SG,YEW TEE MRT,307,CHOA CHU KANG,WEST,GOVERNMENT SCHOOL,CO-ED SCHOOL,SINGLE SESSION,SECONDARY,No,No,No,No,Chinese,Malay,Tamil
VALOUR PRIMARY SCHOOL,valourpri.moe.edu.sg,49   Punggol Central,828728,62426390,valour_ps@moe.edu.sg,na,na,PUNGGOL,EAST,GOVERNMENT SCHOOL,CO-ED SCHOOL,SINGLE SESSION,PRIMARY,No,No,No,No,Chinese,Malay,na
VICTORIA JUNIOR COLLEGE,http://www.victoriajc.moe.edu.sg/,20   MARINE VISTA,449035,64485011,victoria_jc@moe.edu.sg,"Nearest MRT Stations:  Kembangan, Eunos","13, 16, 31, 36, 43, 48, 55, 135, 196, 196e, 197",BEDOK,EAST,GOVERNMENT SCHOOL,CO-ED SCHOOL,FULL DAY,JUNIOR COLLEGE,No,No,No,Yes,Chinese,Malay,Tamil
VICTORIA SCHOOL,http://www.victoria.moe.edu.sg,2    SIGLAP LINK,448880,62912965,VICTORIA_SCH@MOE.EDU.SG,"BEDOK MRT, PAYA LEBAR MRT","31, 36, 43, 47, 48, 55, 135, 155, 196, 196E, 197, 401, 853C",BEDOK,EAST,GOVERNMENT SCHOOL,BOYS' SCHOOL,SINGLE SESSION,SECONDARY,No,Yes,Yes,Yes,Chinese,Malay,Tamil
WATERWAY PRIMARY SCHOOL,https://waterwaypri.moe.edu.sg,70   Punggol Drive,828802,6636 6880,waterway_ps@moe.edu.sg,Kadaloor LRT Station,"50, 381",PUNGGOL,EAST,GOVERNMENT SCHOOL,CO-ED SCHOOL,SINGLE SESSION,PRIMARY,No,No,No,No,Chinese,Malay,Tamil
WELLINGTON PRIMARY SCHOOL,http://www.wellingtonpri.moe.edu.sg,10   WELLINGTON CIRCLE,757702,67533319,WELLINGTONPS@MOE.EDU.SG,Sembawang MRT,"980, 856, 859",SEMBAWANG,NORTH,GOVERNMENT SCHOOL,CO-ED SCHOOL,SINGLE SESSION,PRIMARY,No,No,No,No,Chinese,Malay,Tamil
WEST GROVE PRIMARY SCHOOL,http://www.westgrovepri.moe.edu.sg/,1    JURONG WEST ST 72,649223,62679234,WGPS@MOE.EDU.SG,Boon Lay MRT,"Bus 99, 242",JURONG WEST,WEST,GOVERNMENT SCHOOL,CO-ED SCHOOL,SINGLE SESSION,PRIMARY,No,No,No,No,Chinese,Malay,Tamil
WEST SPRING PRIMARY SCHOOL,http://www.westspringpri.moe.edu.sg,60   Bukit Panjang Ring Road,679946,63144192,westspring_ps@moe.edu.sg,Jelapang LRT,"920, 922",BUKIT PANJANG,WEST,GOVERNMENT SCHOOL,CO-ED SCHOOL,SINGLE SESSION,PRIMARY,No,No,No,No,Chinese,Malay,Tamil
WEST SPRING SECONDARY SCHOOL,http://www.westspringsec.moe.edu.sg,61   SENJA  ROAD,677737,68920369,westspringss@moe.edu.sg,"JELAPANG LRT, SENJA LRT","920, 972, 976",BUKIT PANJANG,WEST,GOVERNMENT SCHOOL,CO-ED SCHOOL,SINGLE SESSION,SECONDARY,No,No,No,No,Chinese,Malay,Tamil
WEST VIEW PRIMARY SCHOOL,http://www.westviewpri.moe.edu.sg,31   SENJA ROAD,677742,67600178,wvps@moe.edu.sg,"Bukit Panjang MRT, SENJA LRT (A13)","170,171,176,178,180,000,000,000,000,000",BUKIT PANJANG,WEST,GOVERNMENT SCHOOL,CO-ED SCHOOL,SINGLE SESSION,PRIMARY,No,No,No,No,Chinese,Malay,Tamil
WESTWOOD PRIMARY SCHOOL,http://www.westwoodpri.moe.edu.sg,1    Jurong West Street 73,649188,64121690,westwood_ps@moe.edu.sg,Boon Lay MRT Station,"181, 502 & 243",JURONG WEST,WEST,GOVERNMENT SCHOOL,CO-ED SCHOOL,SINGLE SESSION,PRIMARY,No,No,No,No,Chinese,Malay,Tamil
WESTWOOD SECONDARY SCHOOL,http://www.westwoodsec.moe.edu.sg,11   JURONG WEST STREET 25,648350,67929737,WESTWOOD_SS@MOE.EDU.SG,BOON LAY MRT,"172, 181, 181M, 185, 199, 405, 974",JURONG WEST,WEST,GOVERNMENT SCHOOL,CO-ED SCHOOL,SINGLE SESSION,SECONDARY,No,No,No,No,Chinese,Malay,Tamil
WHITE SANDS PRIMARY SCHOOL,http://www.whitesandspri.moe.edu.sg,2    PASIR RIS ST 11,519075,69229100,wsps@moe.edu.sg,Pasir Ris MRT Station,"12, 17, 21, 39, 53, 81, 518, 109",PASIR RIS,EAST,GOVERNMENT SCHOOL,CO-ED SCHOOL,SINGLE SESSION,PRIMARY,No,No,No,No,Chinese,Malay,Tamil
WHITLEY SECONDARY SCHOOL,http://www.whitleysec.moe.edu.sg,30   BISHAN STREET 24,579747,64561336,WHITLEY_SS@MOE.EDU.SG,"BISHAN MRT, MARYMOUNT MRT","13, 52, 54, 74, 74E, 88, 162, 162M,  588, 410, 851, 852",BISHAN,SOUTH,GOVERNMENT SCHOOL,CO-ED SCHOOL,SINGLE SESSION,SECONDARY,No,No,No,No,Chinese,Malay,Tamil
WOODGROVE PRIMARY SCHOOL,http://www.woodgrovepri.moe.edu.sg/,2    WOODLANDS DRIVE 14,738079,68943371,WOODGROVE_PS@MOE.EDU.SG,Woodlands MRT Station,901,WOODLANDS,NORTH,GOVERNMENT SCHOOL,CO-ED SCHOOL,SINGLE SESSION,PRIMARY,No,No,No,No,Chinese,Malay,Tamil
WOODGROVE SECONDARY SCHOOL,https://woodgrovesec.moe.edu.sg/,3    WOODLANDS AVENUE 6,738990,68932564,woodgrove_ss@moe.edu.sg,"WOODLANDS MRT, WOODLANDS SOUTH MRT","901, 901M",WOODLANDS,NORTH,GOVERNMENT SCHOOL,CO-ED SCHOOL,SINGLE SESSION,SECONDARY,No,No,No,No,Chinese,Malay,Tamil
WOODLANDS PRIMARY SCHOOL,http://www.woodlandspri.moe.edu.sg,10   WOODLANDS DRIVE 50,738853,62697410,wdp@moe.edu.sg,Woodlands,912 & 912E,WOODLANDS,NORTH,GOVERNMENT SCHOOL,CO-ED SCHOOL,SINGLE SESSION,PRIMARY,No,No,No,No,Chinese,Malay,Tamil
WOODLANDS RING PRIMARY SCHOOL,HTTP://www.woodlandsringpri.moe.edu.sg,11   WOODLANDS RING ROAD,738240,63643679,WRPS@MOE.EDU.SG,Admiralty MRT Station,912,WOODLANDS,NORTH,GOVERNMENT SCHOOL,CO-ED SCHOOL,SINGLE SESSION,PRIMARY,No,No,No,No,Chinese,Malay,Tamil
WOODLANDS RING SECONDARY SCHOOL,http://www.woodlandsringsec.moe.edu.sg,10   WOODLANDS RING ROAD,738239,63643712,wrss@moe.edu.sg,ADMIRALTY MRT,912,WOODLANDS,NORTH,GOVERNMENT SCHOOL,CO-ED SCHOOL,SINGLE SESSION,SECONDARY,No,No,No,No,Chinese,Malay,Tamil
WOODLANDS SECONDARY SCHOOL,http://www.woodlandssec.moe.edu.sg,11   MARSILING ROAD,739111,68494400,wdl_ss@moe.edu.sg,"MARSILING MRT, WOODLANDS MRT","913, 913M, 913T, 178, 856, 903",WOODLANDS,NORTH,GOVERNMENT SCHOOL,CO-ED SCHOOL,SINGLE SESSION,SECONDARY,No,No,No,No,Chinese,Malay,Tamil
XINGHUA PRIMARY SCHOOL,http://www.xinghuapri.moe.edu.sg,45   HOUGANG AVENUE 1,538882,62889121,XINGHUA_PS@MOE.EDU.SG,Kovan MRT Station,"Bus services 53, 62, 112, 113, 115",HOUGANG,SOUTH,GOVERNMENT SCHOOL,CO-ED SCHOOL,SINGLE SESSION,PRIMARY,No,No,No,No,Chinese,Malay,Tamil
XINGNAN PRIMARY SCHOOL,http://www.xingnanpri.moe.edu.sg,5    JURONG WEST STREET 91,649036,67913679,XINGNAN_PS@MOE.EDU.SG,Pioneer MRT Station,Bus 99 & 241,JURONG WEST,WEST,GOVERNMENT SCHOOL,CO-ED SCHOOL,SINGLE SESSION,PRIMARY,No,No,No,No,Chinese,Malay,Tamil
XINMIN PRIMARY SCHOOL,http://www.xinminpri.moe.edu.sg/,9    HOUGANG AVENUE 8,538784,62835479,xinmin_ps@moe.edu.sg,Nil,"74, 147, 165, 112",HOUGANG,NORTH,GOVERNMENT SCHOOL,CO-ED SCHOOL,SINGLE SESSION,PRIMARY,No,No,No,No,Chinese,Malay,Tamil
XINMIN SECONDARY SCHOOL,http://www.xinminsec.moe.edu.sg,11   HOUGANG AVENUE 8,538789,62889382,xinminss_email@schools.gov.sg,HOUGANG MRT,"25, 43, 43M, 55, 70, 70A, 70B, 70M, 72, 72A, 73, 73A, 74, 74E, 88, 88A, 103, 109, 109A, 112, 116, 132, 147, 159, 159A, 161, 165, 329, 660, 854, 854E",HOUGANG,NORTH,GOVERNMENT SCHOOL,CO-ED SCHOOL,SINGLE SESSION,SECONDARY,No,Yes,No,No,Chinese,Malay,Tamil
XISHAN PRIMARY SCHOOL,https://www.xishanpri.moe.edu.sg/,8    YISHUN STREET 21,768611,67588837,XISHAN_PS@MOE.EDU.SG,o   Alight at Yishun MRT Station o   Take Exit C o   Walk towards Yishun Street 21,"Along Yishun Ave 2,take Bus Service 117, 169, 804, 812, 965. Alight at Blk 220. Along Yishun Ring Road,take Bus Service 1N, 800, 804, NR1. Alight at Blk 227 or 236.",YISHUN,NORTH,GOVERNMENT SCHOOL,CO-ED SCHOOL,SINGLE SESSION,PRIMARY,No,No,No,No,Chinese,Malay,Tamil
YANGZHENG PRIMARY SCHOOL,http://www.yangzhengpri.moe.edu.sg/,15   SERANGOON AVENUE 3,556108,62846298,YZPS@MOE.EDU.SG,Serangoon Station,"58 & 105 (Outside the school, Serangoon Ave 3) 133 & 135(Serangoon Ave 2)",SERANGOON,SOUTH,GOVERNMENT SCHOOL,CO-ED SCHOOL,SINGLE SESSION,PRIMARY,No,No,No,No,Chinese,Malay,Tamil
YEW TEE PRIMARY SCHOOL,http://www.yewteepri.moe.edu.sg,10   CHOA CHU KANG ST 64,689100,67670027,YTPS@MOE.EDU.SG,Yew Tee MRT Station,307,CHOA CHU KANG,WEST,GOVERNMENT SCHOOL,CO-ED SCHOOL,SINGLE SESSION,PRIMARY,No,No,No,No,Chinese,Malay,Tamil
YIO CHU KANG PRIMARY SCHOOL,http://www.yiochukangpri.moe.edu.sg,1    HOUGANG STREET 51,538720,63851365,admin_yckps@moe.edu.sg,Hougang MRT Station Yio Chu Kang MRT Station,"88,101,109,159,161 and 325",HOUGANG,NORTH,GOVERNMENT SCHOOL,CO-ED SCHOOL,SINGLE SESSION,PRIMARY,No,No,No,No,Chinese,Malay,Tamil
YIO CHU KANG SECONDARY SCHOOL,http://www.yiochukangsec.moe.edu.sg,3063 ANG MO KIO AVENUE 5,569868,64560669,yckss@moe.edu.sg,YIO CHU KANG MRT,"13, 45, 86, 138, 162, 269, 851, 852, 853",ANG MO KIO,SOUTH,GOVERNMENT SCHOOL,CO-ED SCHOOL,SINGLE SESSION,SECONDARY,No,No,No,No,Chinese,Malay,Tamil
YISHUN INNOVA JUNIOR COLLEGE,https://yijc.moe.edu.sg/,3    YISHUN RING ROAD,768675,62579873,yijc@moe.edu.sg,"Yishun, Khatib","167, 169, 171, 800, 812,",YISHUN,NORTH,GOVERNMENT SCHOOL,CO-ED SCHOOL,FULL DAY,JUNIOR COLLEGE,No,No,No,No,Chinese,Malay,Tamil
YISHUN PRIMARY SCHOOL,http://www.yishunpri.moe.edu.sg,500  YISHUN RING ROAD,768679,62577461,YPS@MOE.EDU.SG,Yishun,Translink Feeder Service 800 & 812,YISHUN,NORTH,GOVERNMENT SCHOOL,CO-ED SCHOOL,SINGLE SESSION,PRIMARY,No,No,No,No,Chinese,Malay,Tamil
YISHUN SECONDARY SCHOOL,http://www.yishunsec.moe.edu.sg,4    YISHUN STREET 71,768516,68767129,YISHUN_SS@MOE.EDU.SG,"YISHUN MRT, KHATIB MRT","167,  169,  171,  800,  807, 811, 812,  856,  858,  859,  860,  969, 980",YISHUN,NORTH,GOVERNMENT SCHOOL,CO-ED SCHOOL,SINGLE SESSION,SECONDARY,No,No,No,No,Chinese,Malay,Tamil
YISHUN TOWN SECONDARY SCHOOL,http://www.yishuntownsec.moe.edu.sg,6    YISHUN STREET 21,768610,67587219,YTSS@MOE.EDU.SG,YISHUN MRT,"39, 85, 171, 800, 803, 804, 806, 811, 812, 851, 852, 853, 853C, 854, 854E, 855, 856, 857, 859, 860",YISHUN,NORTH,GOVERNMENT SCHOOL,CO-ED SCHOOL,SINGLE SESSION,SECONDARY,No,Yes,No,No,Chinese,Malay,Tamil
YU NENG PRIMARY SCHOOL,http://www.ynps.moe.edu.sg/,56   BEDOK NORTH ST 3,469623,64490121,YNPS@MOE.EDU.SG,"Bedok MRT Station (East-West Line), Bedok Reservoir MRT STation (Downtown line)","14, 17, 18, 28, 66, 67, 69, 225",BEDOK,EAST,GOVERNMENT SCHOOL,CO-ED SCHOOL,SINGLE SESSION,PRIMARY,No,No,No,No,Chinese,Malay,na
YUAN CHING SECONDARY SCHOOL,http://www.yuanchingsec.moe.edu.sg,103  YUAN CHING ROAD,618654,62612489,YCSS@MOE.EDU.SG,LAKESIDE MRT,"98, 154, 154A, 180, 182, 187, 240, 240A, 246",JURONG WEST,WEST,GOVERNMENT SCHOOL,CO-ED SCHOOL,SINGLE SESSION,SECONDARY,No,No,No,No,Chinese,Malay,Tamil
YUHUA PRIMARY SCHOOL,http://www.yuhuapri.moe.edu.sg,158  JURONG EAST STREET 24,609558,65605062,YUHUA_PS@MOE.EDU.SG,"Jurong East, Bukit Batok","98,98A,187,333,502,507,NR5",JURONG EAST,WEST,GOVERNMENT SCHOOL,CO-ED SCHOOL,SINGLE SESSION,PRIMARY,No,No,No,No,Chinese,Malay,Tamil
YUHUA SECONDARY SCHOOL,http://www.yuhuasec.moe.edu.sg,35   JURONG WEST STREET 41,649406,65661985,YUHUA_SS@MOE.EDU.SG,LAKESIDE MRT,"49, 98, 99, 157, 180, 185, 187, 198, 334, 335, 502",JURONG WEST,WEST,GOVERNMENT SCHOOL,CO-ED SCHOOL,SINGLE SESSION,SECONDARY,No,No,No,No,Chinese,Malay,Tamil
YUMIN PRIMARY SCHOOL,http://www.yuminpri.moe.edu.sg,3    TAMPINES STREET 21,529393,67811262,YUMIN_PS@MOE.EDU.SG,Tampines MRT Station,na,TAMPINES,EAST,GOVERNMENT SCHOOL,CO-ED SCHOOL,SINGLE SESSION,PRIMARY,No,No,No,No,Chinese,Malay,na
YUSOF ISHAK SECONDARY SCHOOL,http://www.yusofishaksec.moe.edu.sg,11   BUKIT BATOK STREET 25,658712,65009800,yiss@moe.edu.sg,BUKIT BATOK MRT,"61, 66, 77, 106, 157, 174, 178, 506, 852, 963",BUKIT BATOK,WEST,GOVERNMENT SCHOOL,CO-ED SCHOOL,SINGLE SESSION,SECONDARY,No,No,No,No,Chinese,Malay,Tamil
YUYING SECONDARY SCHOOL,http://www.yuyingsec.moe.edu.sg,47   HOUGANG AVENUE 1,538884,62827968,yuying_ss@moe.edu.sg,"KOVAN MRT, SERANGOON MRT, HOUGANG MRT","25, 51, 53, 53M, 55, 62, 87, 113, 119, 151, 854",HOUGANG,SOUTH,GOVERNMENT-AIDED SCH,CO-ED SCHOOL,SINGLE SESSION,SECONDARY,No,No,No,No,Chinese,Malay,Tamil
ZHANGDE PRIMARY SCHOOL,http://www.zhangdepri.moe.edu.sg/,51   Jalan Membina,169485,62740357,ZHANGDE_PS@MOE.EDU.SG,Tiong Bahru MRT Station,"16,33,63,123,195,605,851,14,65,147,167,196,197,961",BUKIT MERAH,SOUTH,GOVERNMENT SCHOOL,CO-ED SCHOOL,SINGLE SESSION,PRIMARY,No,No,No,No,Chinese,Malay,Tamil
ZHENGHUA PRIMARY SCHOOL,http://www.zhenghuapri.moe.edu.sg,9    Fajar Road,679002,67697478,zhenghua_ps@moe.edu.sg,LRT: Fajar Station,"190, 184, 187, 700, 700A, 921",BUKIT PANJANG,WEST,GOVERNMENT SCHOOL,CO-ED SCHOOL,SINGLE SESSION,PRIMARY,No,No,No,No,Chinese,Malay,Tamil
ZHENGHUA SECONDARY SCHOOL,http://www.zhenghuasec.moe.edu.sg,91   SENJA ROAD,677741,67639455,ZHENGHUA_SS@MOE.EDU.SG,JELAPANG LRT,"920, 922, 976",BUKIT PANJANG,WEST,GOVERNMENT SCHOOL,CO-ED SCHOOL,SINGLE SESSION,SECONDARY,No,No,No,No,Chinese,Malay,Tamil
ZHONGHUA PRIMARY SCHOOL,http://www.zhonghuapri.moe.edu.sg,12   SERANGOON AVENUE 4,556095,62835413,zhonghua_ps@moe.edu.sg,"Ang Mo Kio MRT, Bishan MRT, Serangoon MRT","Boundary Road: 22,24,53,105,156,315,853,501,502 Yio Chu Kang Road: 70,76,103,147,156,501,502",SERANGOON,SOUTH,GOVERNMENT SCHOOL,CO-ED SCHOOL,SINGLE SESSION,PRIMARY,No,No,No,No,Chinese,Malay,Tamil
ZHONGHUA SECONDARY SCHOOL,http://www.zhonghuasec.moe.edu.sg,13   SERANGOON AVENUE 3,556123,62824339,ZHONGHUA_SS@MOE.EDU.SG,SERANGOON MRT,"22, 43, 45, 53, 58, 70, 81, 82, 100, 101, 103, 105, 107, 109, 133, 135, 147, 153, 158, 315, 317, 853",SERANGOON,SOUTH,GOVERNMENT SCHOOL,CO-ED SCHOOL,SINGLE SESSION,SECONDARY,No,Yes,No,No,Chinese,Malay,na
